NUMMER,LABEL,AANTAL_ELEKTRISCHE_KILOMETERS,LITER_BENZINE_BESPAARD,AANTAL_UREN_ZEEUWSE_WINDMOLENS,AANTAL_GRAM_CO2_BESPAARD,ADRES,BUURTNR,BUURTCODE,BUURTNAAM,XCOORD,YCOORD,COUNTER,X,Y,LONG,LAT
1,DHPR0201,101591,6773,47,16200381,Zwarte Pad 2A,70,BU05180170,Oostenduinen,79848,459397,1,79848,459397,4.289.931.218.521.720,5.211.768.377.414.800
2,DHPR0202,84466,5631,39,13469461,Zwarte Pad 2A,70,BU05180170,Oostenduinen,79843,459391,2,79843,459391,4.289.859.552.102.920,5.211.762.917.493.070
3,DHPR0301,58853,3924,27,9385136,Aegonplein 40A,61,BU05182561,Landen,85265,456299,3,85265,456299,4.369.644.837.976.560,520.905.519.648.101
4,DHPR0302,60870,4058,28,9706808,Aegonplein 40A,61,BU05182561,Landen,85270,456303,4,85270,456303,4.369.716.967.955.120,5.209.058.854.213.520
5,DHPR0401,19353,1290,9,3086125,Lozerlaan 453,99,BU05183399,De Uithof,76670,450714,5,76670,450714,4.245.532.184.978.310,5.203.921.231.008.610
6,DHPR0501,115163,7678,53,18364729,Jaap Edenweg 10A,99,BU05183399,De Uithof,76223,450671,6,76223,450671,423.902.825.113.775,52.038.762.548.825.300
7,DHPR0502,110837,7389,51,17674805,Jaap Edenweg 10A,99,BU05183399,De Uithof,76216,450671,7,76216,450671,42.389.262.457.192.900,5.203.876.155.413.040
8,DHPR0601,89554,5970,41,14280889,Ypenburgse Stationsweg 160,111,BU05184211,De Venen,86594,452380,8,86594,452380,438.981.996.091.773,52.055.497.959.269.600
9,DHSSC001,44188,2946,20,7046585,Haags Kwartier 29A,117,BU05184317,De Rivieren,86040,453102,9,86040,453102,4.381.597.860.756.150,5.206.191.786.854.930
10,DHSSC002,27309,1821,13,4354893,Haags Kwartier 29B,117,BU05184317,De Rivieren,86040,453102,10,86040,453102,4.381.597.860.756.150,5.206.191.786.854.930
11,DHSSC003,13639,909,6,2174940,Haags Kwartier 29C,117,BU05184317,De Rivieren,86040,453102,11,86040,453102,4.381.597.860.756.150,5.206.191.786.854.930
12,DHSSC004,8044,536,4,1282759,Haags Kwartier 29D,117,BU05184317,De Rivieren,86040,453102,12,86040,453102,4.381.597.860.756.150,5.206.191.786.854.930
13,DHSSC005,12457,830,6,1986398,Haags Kwartier 29E,117,BU05184317,De Rivieren,86040,453102,13,86040,453102,4.381.597.860.756.150,5.206.191.786.854.930
15,DHSSC007,134,9,0,21386,Haags Kwartier 29,117,BU05184317,De Rivieren,8.595.314.162,4.531.170.391,15,8.595.314.162,4.531.170.391,4.380.328.399.466.920,5.206.204.220.613.270
17,DHSSC009,279,19,0,44509,Haags Kwartier 29,117,BU05184317,De Rivieren,8.595.314.162,4.531.170.391,17,8.595.314.162,4.531.170.391,4.380.328.399.466.920,5.206.204.220.613.270
18,DHSSC012,237,16,0,37864,Haags Kwartier 29,117,BU05184317,De Rivieren,8.595.314.162,4.531.170.391,18,8.595.314.162,4.531.170.391,4.380.328.399.466.920,5.206.204.220.613.270
20,DHSSC014,239,16,0,38077,Haags Kwartier 29,117,BU05184317,De Rivieren,8.595.314.162,4.531.170.391,20,8.595.314.162,4.531.170.391,4.380.328.399.466.920,5.206.204.220.613.270
21,DHSSC015,45,3,0,7176,Haags Kwartier 29,117,BU05184317,De Rivieren,8.595.314.162,4.531.170.391,21,8.595.314.162,4.531.170.391,4.380.328.399.466.920,5.206.204.220.613.270
23,GDH001,213218,14215,98,34001140,Van Bleiswijkstraat 150,7,BU05180907,Statenkwartier,79120,456737,23,79120,456737,427.989.618.314.427,52.093.679.928.622.300
24,GDH002,108602,7240,50,17318445,Koningin Emmakade 197,43,BU05181143,Sweelinckplein e.o.,79325,455740,24,79325,455740,4.283.108.435.957.290,5.208.474.828.273.250
25,GDH003,99900,6660,46,15930651,Copernicusplein 15,55,BU05182055,Valkenboskwartier,78801,454767,25,78801,454767,4.275.681.987.126.330,5.207.593.238.980.700
26,GDH004,15294,1020,7,2438830,Azaleastraat t.o 130,51,BU05181251,Bloemenbuurt-oost,77942,454801,26,77942,454801,4.263.146.297.206.860,5.207.611.907.913.820
27,GDH005,81622,5441,38,13016027,Brasemdaal 1,97,BU05181697,Kraayenstein en Vroondaal,76284,451389,27,76284,451389,4.239.751.822.115.600,5.204.522.361.297.790
28,GDH006,181804,12120,84,28991672,Koninginnegracht 1,47,BU05182347,Willemspark,81527,455809,28,81527,455809,431.521.519.446.578,5.208.566.495.883.940
29,GDH006B,87616,5841,40,13971842,Koninginnegracht 1,47,BU05182347,Willemspark,81524,455814,29,81524,455814,4.315.170.353.980.420,5.208.570.949.448.160
30,GDH007,173123,11542,80,27607298,Bankaplein 3,46,BU05180546,Archipelbuurt,80681,456661,30,80681,456661,43.026.882.784.611.500,52.093.208.727.794.100
31,GDH008,201949,13463,93,32204190,Joan Maetsuyckerstraat 3,66,BU05182666,Bezuidenhout-oost,83040,456140,31,83040,456140,433.721.679.260.834,5.208.883.830.705.190
32,GDH009,141330,9422,65,22537487,Van Boetzelaerlaan 2,7,BU05180907,Statenkwartier,78585,456018,32,78585,456018,4.272.251.530.712.110,5.208.714.493.395.760
34,GDH012,81834,5456,38,13049789,2e Schuytstraat 195g,42,BU05181142,Stadhoudersplantsoen,78969,455578,34,78969,455578,4.277.951.450.026.630,5.208.324.367.063.460
35,GDH013,113656,7577,52,18124345,Schenkkade 233,65,BU05182665,Bezuidenhout-midden,83396,455275,35,83396,455275,4.342.592.037.334.580,52.081.110.868.946.800
36,GDH014,155906,10394,72,24861759,Allard Piersonlaan 139,25,BU05183825,Laakkwartier-oost,82148,452877,36,82148,452877,43.249.000.657.797.500,52.059.397.739.408.900
37,GDH015,248217,16548,114,39582382,Riouwstraat t.o. 2,46,BU05180546,Archipelbuurt,80236,456393,37,80236,456393,4.296.254.413.446.270,52.090.740.366.673.200
38,GDH016,89086,5939,41,14206311,Mezenlaan 48,9,BU05181309,Vogelwijk,77841,455543,38,77841,455543,4.261.505.462.973.110,52.082.773.097.067.800
39,GDH017,174799,11653,81,27874660,Hogeweg 16,5,BU05180605,Van Stolkprk./Schev.Bosjes,79680,457426,39,79680,457426,4.287.914.507.872.700,5.209.994.822.978.830
40,GDH018,106583,7106,49,16996509,Laan van Meerdervoort 80,45,BU05182245,Zeeheldenkwartier,80085,455723,40,80085,455723,4.294.198.595.845.690,520.846.988.635.811
41,GDH019,140216,9348,65,22359718,Bazarstraat to 3,45,BU05182245,Zeeheldenkwartier,80582,455785,41,80582,455785,4.301.435.014.996.550,52.085.323.064.566.100
42,GDH020,160796,10720,74,25641631,Vivienstraat 1,7,BU05180907,Statenkwartier,79255,457105,42,79255,457105,4.281.784.104.910.460,52.097.005.509.034.400
43,GDH021,108986,7266,50,17379582,Abrikozenstraat 253,53,BU05181953,Vruchtenbuurt,77237,454087,43,77237,454087,4.253.026.951.881.840,5.206.960.408.881.580
44,GDH022,100833,6722,47,16079556,Oeverwallaan 35,115,BU05184215,De Bras,85831,449556,44,85831,449556,4.379.268.222.566.320,5.203.002.406.629.650
45,GDH023,160117,10674,74,25533361,Prins Mauritslaan 160,7,BU05180907,Statenkwartier,78722,457091,45,78722,457091,427.401.005.849.862,5.209.680.649.612.100
46,GDH024,111726,7448,52,17816592,Wollegras 28,115,BU05184215,De Bras,85861,449741,46,85861,449741,4.379.667.924.645.930,5.203.169.039.858.030
47,GDH025,163161,10877,75,26018777,Celebesstraat 66,46,BU05180546,Archipelbuurt,80388,456415,47,80388,456415,42.984.671.850.940.600,52.090.958.582.045.700
48,GDH026,100937,6729,47,16096141,Leuvensestraat 48,71,BU05180271,Belgisch Park,80076,458543,48,80076,458543,4.293.447.468.294.830,5.211.004.009.694.110
49,GDH027,67959,4531,31,10837144,Van Speijkstraat 48,45,BU05182245,Zeeheldenkwartier,80073,455595,49,80073,455595,4.294.051.663.710.760,520.835.469.415.672
50,GDH028,114792,7653,53,18305447,Van Hogenhoucklaan 1,78,BU05180478,Arendsdorp,82100,456768,50,82100,456768,4.323.368.996.068.140,52.094.359.011.907.900
51,GDH029,120760,8051,56,19257125,Siem Leenestraat 20,95,BU05181795,Kom Loosduinen,76423,452363,51,76423,452363,4.241.553.677.678.700,5.205.399.630.603.630
52,GDH030,153739,10249,71,24516211,De Carpentierstraat 4,65,BU05182665,Bezuidenhout-midden,82840,455966,52,82840,455966,4.334.335.829.640.270,520.872.485.716.882
53,GDH031,128590,8573,59,20505873,Ten Hovestraat 75,7,BU05180907,Statenkwartier,79045,456860,53,79045,456860,42.787.745.103.194.000,5.209.477.500.045.190
54,GDH032,145205,9680,67,23155306,Gerrit Kasteinweg 7,74,BU05180374,Duttendel,80790,458129,54,80790,458129,4.303.958.976.852.280,5.210.641.583.662.390
55,GDH033,21931,1462,10,3497265,Witte de Withstraat 121A,45,BU05182245,Zeeheldenkwartier,79942,455084,55,79942,455084,4.292.253.191.670.330,5.207.893.699.272.740
56,GDH034,101537,6769,47,16191778,Zeesluisweg 92B,2,BU05180702,Vissershaven,78534,457556,56,78534,457556,4.271.162.583.509.760,521.009.593.363.531
57,GDH035,208791,13919,96,33295206,Van Blankenburgstraat 45C,43,BU05181143,Sweelinckplein e.o.,79578,455723,57,79578,455723,4.286.802.801.325.090,52.084.630.031.154.100
58,GDH036,177995,11866,82,28384316,Haviklaan 20,9,BU05181309,Vogelwijk,77481,455248,58,77481,455248,4.256.321.314.284.250,52.080.071.761.850.700
59,GDH037,46407,3094,21,7400326,Buitenom 167,14,BU05182814,Zuidwal,80545,454200,59,80545,454200,430.124.113.608.171,5.207.107.412.263.320
60,GDH038,95602,6373,44,15245350,Gerrit van der Veenlaan 147,86,BU05181786,Houtwijk,76880,452514,60,76880,452514,4.248.180.926.557.230,5.205.541.789.940.060
61,GDH039,97071,6471,45,15479537,Hendrik Zwaardecroonstraat 60,66,BU05182666,Bezuidenhout-oost,83228,455790,61,83228,455790,4.340.033.164.786.910,5.208.571.732.888.140
62,GDH040,78546,5236,36,12525505,Archimedesstraat 62,43,BU05181143,Sweelinckplein e.o.,78961,455323,62,78961,455323,4.277.891.594.105.780,52.080.950.971.688.500
63,GDH041,55928,3729,26,8918697,Rode Kruislaan 61,51,BU05181251,Bloemenbuurt-oost,77880,455344,63,77880,455344,4.262.119.328.506.690,5.208.099.019.120.410
64,GDH042,290370,19358,134,46304393,Casuariestraat 32,12,BU05182812,Voorhout,81762,455423,64,81762,455423,4.318.726.204.466.730,5.208.222.720.378.130
190,GDH163,121548,8103,56,19382777,Alikruiksingel 6,120,BU05184420,De Vissen,88024,453178,190,88024,453178,4.410.510.444.196.360,52.062.844.272.909.800
191,GDH164,100736,6716,46,16063965,Rietkeverstraat 43,105,BU05184005,Zonne Veld,80508,448603,191,80508,448603,4.301.921.467.113.320,52.020.770.160.957.400
192,GDH165,50773,3385,23,8096646,Cort Heyligersstraat 15,10,BU05182110,Rond de Energiecentrale,80112,454691,192,80112,454691,42.948.189.798.808.900,5.207.542.822.920.980
193,GDH166,89632,5975,41,14293317,Stephensonstraat 15,44,BU05182144,Koningsplein e.o.,79252,455181,193,79252,455181,4.282.167.682.393.550,5.207.971.474.714.660
194,GDH167,46861,3124,22,7472797,Zwarteweg 46,13,BU05182813,Uilebomen,82007,455116,194,82007,455116,4.322.365.628.398.190,52.079.500.614.574.500
196,GDH169,126071,8405,58,20104177,Zilvermeeuwlaan Nootdorpse Landingslaan,112,BU05184212,Morgenweide,85633,451141,196,85633,451141,4.376.061.837.937.340,5.204.424.367.100.430
197,GDH170,134345,8956,62,21423614,Van Diemenstraat 204,45,BU05182245,Zeeheldenkwartier,79785,455477,197,79785,455477,4.289.876.625.542.450,5.208.244.746.334.240
198,GDH171,90371,6025,42,14411235,Brouwersgracht 14,14,BU05182814,Zuidwal,80860,454441,198,80860,454441,4.305.782.428.805.860,52.073.282.182.958.000
199,GDH172,56314,3754,26,8980260,Alkmaarsestraat hoek Groningsestraat,71,BU05180271,Belgisch Park,79692,459029,199,79692,459029,4.287.735.289.204.920,5.211.435.547.282.060
200,GDH173,82984,5532,38,13233218,Frankenslag 144,7,BU05180907,Statenkwartier,78812,456974,200,78812,456974,4.275.349.421.736.610,5.209.576.745.528.090
201,GDH174,106866,7124,49,17041558,Tortellaan Laan van Poot,9,BU05181309,Vogelwijk,76478,454793,201,76478,454793,4.241.796.587.225.120,5.207.584.154.702.990
202,GDH175,71176,4745,33,11350254,Jacques Urlusstraat 31,94,BU05181894,Waldeck-noord,76002,453221,202,76002,453221,4.235.218.257.048.480,5.206.164.694.969.430
203,GDH176,76406,5094,35,12184193,Isingstraat 270,25,BU05183825,Laakkwartier-oost,81846,452965,203,81846,452965,43.204.782.836.605.700,5.206.014.878.773.610
204,GDH177,162376,10825,75,25893561,Van Imhoffplein 7,65,BU05182665,Bezuidenhout-midden,83215,455339,204,83215,455339,4.339.938.432.258.260,5.208.166.259.018.380
205,GDH178,148400,9893,68,23664820,Steenwijklaan 90,80,BU05183480,Morgenstond-zuid,79208,451244,205,79208,451244,428.239.970.441.047,5.204.432.806.232.790
206,GDH179,55405,3694,26,8835235,Abrikozenstraat 103,53,BU05181953,Vruchtenbuurt,77441,453762,206,77441,453762,4.256.075.581.186.910,520.667.120.347.354
207,GDH180,103773,6918,48,16548389,Van Diemenstraat 132,45,BU05182245,Zeeheldenkwartier,79878,455337,207,79878,455337,4.291.264.012.424.320,5.208.120.195.042.410
208,GDH181,58174,3878,27,9276859,2e Messstraat 51,72,BU05180772,Rijslag,79440,458454,208,79440,458454,4.284.184.389.939.820,52.109.153.791.723.600
209,GDH182,61036,4069,28,9733279,Ary Schefferstraat 127,75,BU05180475,Uilennest,82899,456837,209,82899,456837,4.335.012.369.661.490,5.209.508.375.482.580
210,GDH183,187056,12470,86,29829185,Paviljoensgracht 1,14,BU05182814,Zuidwal,81215,454572,210,81215,454572,4.310.931.331.681.250,5.207.450.685.587.970
211,GDH184,38951,2597,18,6211370,Faberlaan 17,113,BU05184213,Singels,84358,450297,211,84358,450297,4.357.653.797.809.790,52.036.497.696.093.500
212,GDH185,82369,5491,38,13135174,Frankenslag 1,7,BU05180907,Statenkwartier,79226,457339,212,79226,457339,428.130.893.657.337,52.099.104.416.413.400
213,GDH186,102159,6811,47,16290965,Oscar Romeroplein 1,86,BU05181786,Houtwijk,77655,453042,213,77655,453042,4.259.359.084.482.340,5.206.027.156.855.360
214,GDH187,198672,13245,92,31681510,Bisschopsstraat Neuhuyskade,79,BU05180479,Van Hoytemastraat e.o.,81951,456442,214,81951,456442,4.321.264.835.112.720,52.091.409.685.128.600
215,GDH188,142863,9524,66,22781888,Swanenburgstraat Heeswijkplein,20,BU05183620,Moerwijk-oost,80841,451949,215,80841,451949,430.604.650.679.488,5.205.088.462.208.760
216,GDH189,64949,4330,30,10357123,Delistraat Bankastraat,46,BU05180546,Archipelbuurt,80673,456722,216,80673,456722,4.302.558.258.452.490,5.209.375.584.305.460
217,GDH190,86452,5763,40,13786204,Cornelis Jolstraat nabij 80,4,BU05180704,Visserijbuurt,79311,457689,217,79311,457689,4.282.471.530.985.600,5.210.226.137.605.970
218,GDH191,61960,4131,29,9880592,Stiemensvaart 65,114,BU05184214,Waterbuurt,85099,450135,218,85099,450135,4.368.484.740.615.000,52.035.135.726.386.600
219,GDH192,89981,5999,41,14349016,Koningsplein 37,44,BU05182144,Koningsplein e.o.,79632,455096,219,79632,455096,4.287.729.039.308.370,5.207.900.272.829.910
220,GDH193,52962,3531,24,8445603,Lisdoddestraat 37,105,BU05184005,Zonne Veld,80604,448569,220,80604,448569,4.303.327.252.884.090,5.202.047.749.307.460
221,GDH194,26094,1740,12,4161141,Fultonstraat 241A,55,BU05182055,Valkenboskwartier,78865,454590,221,78865,454590,4.276.654.881.288.520,5.207.435.055.043.890
222,GDH195,101678,6779,47,16214305,Paulinastraat nabij 75,66,BU05182666,Bezuidenhout-oost,82963,455546,222,82963,455546,43.362.189.054.186.400,52.083.490.132.406.100
223,GDH196,128568,8571,59,20502357,Meloenstraat 70,53,BU05181953,Vruchtenbuurt,77464,453983,223,77464,453983,4.256.360.759.780.250,5.206.870.130.083.870
224,GDH197,47573,3172,22,7586327,Sportlaan 954,51,BU05181251,Bloemenbuurt-oost,77558,455137,224,77558,455137,4.257.469.610.779.630,5.207.908.502.089.810
225,GDH198,133782,8919,62,21333798,Waterviolier 36,115,BU05184215,De Bras,86656,449847,225,86656,449847,4.391.230.278.908.460,52.032.741.573.004.300
227,GDH200,138751,9250,64,22126143,Buizerdlaan 48,112,BU05184212,Morgenweide,86051,451962,227,86051,451962,4.381.988.352.306.690,5.205.167.411.637.170
228,GDH201,99674,6645,46,15894708,Doorniksestraat 1,71,BU05180271,Belgisch Park,80279,458510,228,80279,458510,4.296.417.627.879.400,5.210.977.099.019.020
229,GDH202,66409,4427,31,10590015,Hoefbladlaan 157,92,BU05181492,Bohemen en Meer en Bos,75979,453833,229,75979,453833,423.474.129.113.554,5.206.714.345.982.570
230,GDH203,71538,4769,33,11407857,Parkweg 23,5,BU05180605,Van Stolkprk./Schev.Bosjes,79569,457617,230,79569,457617,42.862.524.847.353.000,52.101.649.564.136.700
231,GDH204,73248,4883,34,11680687,Waterlandsingel 152,103,BU05184003,Parkbuurt Oosteinde,79805,449032,231,79805,449032,4.291.586.897.001.980,5.202.453.063.807.750
232,GDH205,125808,8387,58,20062157,Van Beuningenstraat 1,7,BU05180907,Statenkwartier,79015,456601,232,79015,456601,4.278.394.515.525.600,5.209.244.333.985.030
233,GDH206,118605,7907,55,18913468,Weissenbruchstraat 1k,48,BU05180448,Nassaubuurt,81760,456203,233,81760,456203,43.185.295.399.186.300,520.892.366.131.839
234,GDH207,120945,8063,56,19286760,Ruychrocklaan 112,77,BU05180477,Waalsdorp,81658,457296,234,81658,457296,4.316.806.334.763.910,5.209.904.562.194.930
235,GDH208,46741,3116,22,7453606,Bootsmansingel 42,120,BU05184420,De Vissen,88255,452871,235,88255,452871,4.413.938.589.787.790,52.060.113.137.487.400
236,GDH209,53230,3549,25,8488484,Haverkamp 228,67,BU05182567,Kampen,83927,456226,236,83927,456226,435.013.926.880.395,5.208.972.576.014.870
237,GDH210,57628,3842,27,9189783,Valkenbosplein 6,52,BU05181252,Bomenbuurt,78772,455088,237,78772,455088,4.275.187.327.309.870,5.207.881.311.945.230
238,GDH211,79616,5308,37,12696046,Heiloostraat 945,84,BU05183284,Leyenburg,78361,453037,238,78361,453037,4.269.653.210.907.500,52.060.324.740.797.400
239,GDH212,59939,3996,28,9558221,Plesmanlaan 106a,113,BU05184213,Singels,84896,450526,239,84896,450526,43.654.465.592.486.100,5.203.862.399.056.680
240,GDH213,130170,8678,60,20757795,Willem de Zwijgerlaan 78,8,BU05180908,Geuzenkwartier,78475,456433,240,78475,456433,4.270.553.713.223.560,520.908.591.958.761
241,GDH214,139517,9301,64,22248316,Hoge Nieuwstraat 14,12,BU05182812,Voorhout,81294,455338,241,81294,455338,4.311.918.013.213.950,5.208.140.123.086.800
242,GDH215,58922,3928,27,9396087,Altingstraat 80,66,BU05182666,Bezuidenhout-oost,83414,455948,242,83414,455948,4.342.713.353.381.860,5.208.716.132.648.950
243,GDH216,155833,10389,72,24850126,Prof. P.S. Gerbrandyweg 131,5,BU05180605,Van Stolkprk./Schev.Bosjes,79775,457732,243,79775,457732,4.289.233.237.540.780,5.210.271.107.139.970
244,GDH217,46594,3106,21,7430218,Van Zeggelenlaan 145,24,BU05183824,Laakkwartier-west,81550,452479,244,81550,452479,4.316.267.267.996.910,5.205.574.204.479.680
245,GDH218,71035,4736,33,11327752,Spieringdam 9,120,BU05184420,De Vissen,87885,453262,245,87885,453262,4.408.467.217.869.820,52.063.582.359.659.100
246,GDH219,91349,6090,42,14567052,Parsifalstraat 47,93,BU05181893,Componistenbuurt,76262,453454,246,76262,453454,4.238.955.241.505.610,5.206.377.783.845.640
247,GDH220,56570,3771,26,9021021,Tureluurlaan 31,112,BU05184212,Morgenweide,85355,451217,247,85355,451217,4.371.994.639.330.950,52.044.891.820.551.300
248,GDH221,93667,6244,43,14936784,Copernicusstraat Regentesselaan 63,44,BU05182144,Koningsplein e.o.,79261,455050,248,79261,455050,4.282.328.033.795.260,5.207.853.872.268.480
249,GDH222,88183,5879,41,14062260,Wattstraat 24,44,BU05182144,Koningsplein e.o.,79076,455128,249,79076,455128,4.279.612.391.627.770,52.079.214.350.084.000
250,GDH223,51966,3464,24,8286846,Buitentuinen Oude Haagweg 275,40,BU05181840,Nieuw Waldeck,76748,452679,250,76748,452679,4.246.218.877.973.470,5.205.688.206.814.080
251,GDH224,69207,4614,32,11036149,Zwaardstraat hoek Duinstraat 17,1,BU05180701,Oud Scheveningen,78888,457647,251,78888,457647,4.276.308.049.174.040,52.101.825.920.311.700
252,GDH225,17886,1192,8,2852177,Mahatma Gandhistraat 1,86,BU05181786,Houtwijk,77734,452677,252,77734,452677,426.059.341.946.292,5.205.700.246.074.670
253,GDH226,133621,8908,62,21308135,Madoerastraat 34,46,BU05180546,Archipelbuurt,80731,456539,253,80731,456539,4.303.444.363.590.830,5.209.211.905.944.170
254,GDH227,125174,8345,58,19961145,Malakkastraat 224,46,BU05180546,Archipelbuurt,80307,456306,254,80307,456306,4.297.309.315.936.080,5.208.996.810.797.220
255,GDH227B,70796,4720,33,11289622,Malakkastraat 224,46,BU05180546,Archipelbuurt,80307,456306,255,80307,456306,4.297.309.315.936.080,5.208.996.810.797.220
256,GDH228,38453,2564,18,6132026,Lijsterbesplein Laan van Meerdervoort 609,54,BU05182054,Heesterbuurt,78016,454592,256,78016,454592,4.264.272.696.078.860,5.207.425.116.211.420
257,GDH229,131180,8745,60,20918785,Ko van Dijkplein 28,105,BU05184005,Zonne Veld,80196,448214,257,80196,448214,4.297.461.713.792.090,5.201.723.230.695.850
258,GDH230,113519,7568,52,18102499,Wagenaarweg 9,73,BU05180373,Westbroekpark,80447,457619,258,80447,457619,4.299.064.645.528.950,52.101.786.517.309.200
259,GDH231,105985,7066,49,16901111,Statenlaan 115,7,BU05180907,Statenkwartier,78629,456918,259,78629,456918,4.272.691.829.036.530,5.209.523.898.348.530
260,GDH232,16651,1110,8,2655271,Luxemburgstraat t.o. 47,95,BU05181795,Kom Loosduinen,76148,452204,260,76148,452204,4.237.581.656.618.750,5.205.252.837.361.530
261,GDH233,71654,4777,33,11426399,Zeezwaluwstraat t.o. 78,100,BU05180800,Duindorp,77837,456609,261,77837,456609,4.261.205.927.098.770,52.092.352.275.605.100
262,GDH234,43891,2926,20,6999189,Kepplerstraat 121,44,BU05182144,Koningsplein e.o.,79329,454793,262,79329,454793,4.283.376.830.484.160,5.207.623.843.999.920
263,GDH235,61276,4085,28,9771446,Van Maerlantlaan 1,38,BU05183638,Moerwijk-noord,80492,452332,263,80492,452332,43.008.758.193.241.800,5.205.427.974.410.760
264,GDH236,84991,5666,39,13553162,Van Boisotstraat 1,8,BU05180908,Geuzenkwartier,78448,456935,264,78448,456935,4.270.047.088.465.900,5.209.536.675.249.490
265,GDH237,37681,2512,17,6008927,Newtonplein 50,55,BU05182055,Valkenboskwartier,78943,454310,265,78943,454310,4.277.854.826.711.350,5.207.184.499.687.730
266,GDH238,113517,7568,52,18102190,Ellekomstraat 34,35,BU05183135,Oostbroek-zuid,79482,453617,266,79482,453617,4.285.868.456.318.580,5.206.569.096.144.200
267,GDH239,78011,5201,36,12440217,Van Boetzelaerlaan 247,7,BU05180907,Statenkwartier,78512,456944,267,78512,456944,4.270.978.879.037.880,52.095.456.480.067.800
268,GDH240,217020,14468,100,34607445,Fluwelen Burgwal nabij 45,13,BU05182813,Uilebomen,81740,455084,268,81740,455084,43.184.780.927.655.100,520.791.777.789.995
269,GDH241,143296,9553,66,22850947,Balistraat 95,46,BU05180546,Archipelbuurt,81081,456506,269,81081,456506,4.308.557.971.048.290,520.918.693.457.176
270,GDH242,63640,4243,29,10148451,Loudonstraat 118,66,BU05182666,Bezuidenhout-oost,83713,455885,270,83713,455885,4.347.088.452.136.130,5.208.663.373.714.070
271,GDH243,150620,10041,69,24018837,Stevinstraat 232,71,BU05180271,Belgisch Park,80105,458687,271,80105,458687,42.938.390.815.515.800,5.211.133.810.325.970
272,GDH244,96338,6423,44,15362631,Frederik Hendrikplein 242,7,BU05180907,Statenkwartier,78847,456256,272,78847,456256,42.760.204.710.366.900,5.208.931.985.850.470
273,GDH245,78984,5266,36,12595272,Riouwstraat 216,46,BU05180546,Archipelbuurt,80998,456815,273,80998,456815,4.307.279.950.409.520,52.094.635.153.676.600
274,GDH246,89710,5981,41,14305765,Waalsdorperweg hoek van Voorschotenlaan 1,77,BU05180477,Waalsdorp,81305,457432,274,81305,457432,4.311.625.901.942.690,52.100.220.924.316.400
275,GDH247,66137,4409,31,10546684,Rudolf van Bramenstraat hoek Beetsstraat 82,23,BU05183823,Spoorwijk,81208,452317,275,81208,452317,4.311.316.577.635.660,5.205.424.074.792.850
276,GDH248,38429,2562,18,6128180,Hermelijnrade t.o. 4,87,BU05183387,Venen Oorden en Raden,77471,451487,276,77471,451487,42.570.293.708.399.300,52.046.271.601.053.300
277,GDH249,161211,10747,74,25707704,Jozef Isra?«lsplein 1,48,BU05180448,Nassaubuurt,81642,456375,277,81642,456375,431.677.104.092.265,52.090.766.710.580.700
278,GDH250,63128,4209,29,10066743,Goudvinklaan nabij 1,112,BU05184212,Morgenweide,85466,451007,278,85466,451007,4.373.655.153.234.340,5.204.301.849.667.790
279,GDH251,66572,4438,31,10616089,Populierstraat 66,52,BU05181252,Bomenbuurt,78541,455235,279,78541,455235,42.717.851.610.162.800,5.208.010.231.164.390
280,GDH252,89331,5955,41,14245388,Laan van Wateringse Veld 189,102,BU05184002,Hoge Veld,79320,450032,280,79320,450032,4.284.300.293.512.850,5.203.345.143.057.650
281,GDH253,54861,3657,25,8748422,Ruisvoornvijver 10,120,BU05184420,De Vissen,88011,453013,281,88011,453013,4.410.353.262.210.890,52.061.359.845.586.100
282,GDH254,56684,3779,26,9039281,Gentsestraat t.o. 111,71,BU05180271,Belgisch Park,79994,458472,282,79994,458472,42.922.662.574.524.700,5.210.939.093.317.230
283,GDH255,12322,821,6,1965002,Helmersstraat t.o. 104,45,BU05182245,Zeeheldenkwartier,80088,455056,283,80088,455056,4.294.388.824.062.850,5.207.870.513.465.620
284,GDH256,11143,743,5,1776875,Maarseveensestraat 4,30,BU05183130,Rustenburg,79122,453214,284,79122,453214,4.280.708.797.999.330,52.062.020.128.618
285,GDH257,58074,3872,27,9260798,Harstenhoekplein nabij 14,71,BU05180271,Belgisch Park,79697,458813,285,79697,458813,4.287.856.031.204.390,5.211.241.503.773.970
286,GDH258,87873,5858,41,14012879,Badhuiskade t.o. 11,3,BU05180703,Scheveningen Badplaats,78977,458275,286,78977,458275,4.277.466.705.511.330,5.210.748.176.037.160
287,GDH259,10937,729,5,1744087,Soesterbergstraat nabij 22,84,BU05183284,Leyenburg,78728,453124,287,78728,453124,4.274.984.408.606.840,5.206.115.722.584.960
288,GDH261,42952,2863,20,6849422,Stuyvesantstraat nabij 12,66,BU05182666,Bezuidenhout-oost,83413,455427,288,83413,455427,4.342.808.110.169.080,5.208.247.906.424.170
289,GDH262,6852,457,3,1092728,Rossinilaan nabij 144,40,BU05181840,Nieuw Waldeck,76540,453197,289,76540,453197,4.243.067.631.980.140,5.206.150.772.123.480
290,GDH263,64152,4277,30,10230117,Wim Sonneveldstraat 10,105,BU05184005,Zonne Veld,80082,448327,290,80082,448327,4.295.776.520.704.230,5.201.823.243.183.960
291,GDH264,25768,1718,12,4109208,Beeklaan 261,44,BU05182144,Koningsplein e.o.,79106,454724,291,79106,454724,4.280.139.815.216.450,520.755.878.436.446
292,GDH265,89006,5934,41,14193431,Van Nijenrodestraat 4,77,BU05180477,Waalsdorp,81297,457145,292,81297,457145,43.115.712.217.226.500,520.976.406.687.539
293,GDH266,65639,4376,30,10467262,Laan van Meerdervoort nabij 211,43,BU05181143,Sweelinckplein e.o.,79251,455285,293,79251,455285,4.282.130.006.015.290,520.806.492.252.147
294,GDH267,84346,5623,39,13450342,Groenewegje t.o. 160,18,BU05182718,Huygenspark,81727,454534,294,81727,454534,4.318.406.579.916.490,52.074.233.333.409.300
295,GDH268,192122,12808,89,30637003,Hofzichtlaan 19,68,BU05182568,Marlot,84473,457438,295,84473,457438,4.357.854.274.907.850,5.210.068.763.876.370
296,GDH269,68590,4573,32,10937758,Loevesteinlaan 204,89,BU05183489,Morgenstond-oost,78934,452269,296,78934,452269,4.278.178.219.200.460,5.205.350.191.451.030
297,GDH270,151194,10080,70,24110361,Oeverwallaan nabij 95,115,BU05184215,De Bras,86055,449702,297,86055,449702,43.825.024.548.093.500,5.203.136.406.047.250
298,GDH271,105312,7021,49,16793764,Mexicosingel 44,102,BU05184002,Hoge Veld,79666,449887,298,79666,449887,4.289.373.686.897.710,5.203.219.546.560.410
299,GDH272,46183,3079,21,7364615,Melodiestraat nabij 3,95,BU05181795,Kom Loosduinen,75682,452486,299,75682,452486,4.230.723.464.042.210,5.205.499.609.124.260
300,GDH273,126323,8422,58,20144371,Atjehstraat 142,46,BU05180546,Archipelbuurt,81032,456750,300,81032,456750,430.779.013.636.159,5.209.405.556.128.520
301,GDH274,79987,5332,37,12755227,De Carpentierstraat t.o. 81,65,BU05182665,Bezuidenhout-midden,83001,455761,301,83001,455761,4.336.727.835.443.060,52.085.427.238.322.300
302,GDH275,90336,6022,42,14405574,Mozartlaan  hoek Beethovenlaan,94,BU05181894,Waldeck-noord,75619,452857,302,75619,452857,4.229.718.867.891.950,5.205.832.109.240.150
303,GDH276,86693,5780,40,13824601,Pijlstaartplein,120,BU05184420,De Vissen,88333,453654,303,88333,453654,4.414.922.945.850.580,52.067.159.358.199.000
304,GDH276B,18860,1257,9,3007586,Pijlstaartplein nabij Smienstraat 72,120,BU05184420,De Vissen,88326,453645,304,88326,453645,4.414.822.628.623.740,52.067.077.632.670.200
305,GDH277,30983,2066,14,4940765,Wollegras 71,115,BU05184215,De Bras,85770,449701,305,85770,449701,4.378.350.110.579.740,5.203.131.956.606.440
306,GDH278,67420,4495,31,10751280,Prof. P.S. Gerbrandyweg t.o. 5,5,BU05180605,Van Stolkprk./Schev.Bosjes,79621,457792,306,79621,457792,4.286.972.606.206.460,5.210.322.931.523.950
307,GDH279,166682,11112,77,26580243,Henri?«tte van der Meydreef nabij 13,120,BU05184420,De Vissen,87633,453256,307,87633,453256,4.404.794.008.993.800,52.063.497.852.352.900
308,GDH280,70038,4669,32,11168693,Marcellisstraat t.o. 255,4,BU05180704,Visserijbuurt,79131,458144,308,79131,458144,4.279.743.471.511.010,52.106.325.648.922.300
309,GDH281,8461,564,4,1349265,Slangenwortel 16,115,BU05184215,De Bras,86475,450195,309,86475,450195,4.388.523.229.095.740,52.035.846.709.047.300
310,GDH282,191494,12766,88,30536911,Zomereik 58,115,BU05184215,De Bras,86077,449668,310,86077,449668,4.382.829.853.849.840,52.031.061.237.783.600
311,GDH283,65316,4354,30,10415744,Bogotastraat t.o. 7,102,BU05184002,Hoge Veld,79579,449678,311,79579,449678,4.288.152.159.954.640,52.030.305.405.460.200
312,GDH284,66338,4423,31,10578700,Laan van vredestein nabij 185,86,BU05181786,Houtwijk,77161,452868,312,77161,452868,4.252.196.584.322.220,52.058.638.712.855.600
65,GDH043,326313,21754,150,52036046,Jacob Mosselstraat 53,65,BU05182665,Bezuidenhout-midden,83145,455315,65,83145,455315,4.338.922.427.054.520,5.208.143.782.730.200
66,GDH044,28669,1911,13,4571750,Lorentzplein 35,25,BU05183825,Laakkwartier-oost,82323,452977,66,82323,452977,4.327.430.158.626.380,5.206.031.940.332.710
67,GDH045,77811,5187,36,12408217,Havannasingel 7,102,BU05184002,Hoge Veld,79329,450148,67,79329,450148,42.844.057.621.197,52.034.495.122.084.800
68,GDH046,246732,16449,114,39345532,Jan van Nassaustraat 125,48,BU05180448,Nassaubuurt,81580,456383,68,81580,456383,4.315.864.772.101.010,5.209.083.038.501.640
69,GDH047,151250,10083,70,24119344,Johan van Oldenbarneveltlaan 84,7,BU05180907,Statenkwartier,79011,457291,69,79011,457291,4.278.182.351.380.810,5.209.864.357.896.460
71,GDH048T,120328,8022,55,19188360,Daguerrestraat 32,44,BU05182144,Koningsplein e.o.,79257,454969,71,79257,454969,428.228.767.324.115,5.207.781.025.413.920
72,GDH049,107785,7186,50,17188117,Arnhemsestraat 135,71,BU05180271,Belgisch Park,79801,458696,72,79801,458696,4.289.399.889.327.710,5.211.137.774.570.430
73,GDH050,59229,3949,27,9445070,Hanenburglaan 368,51,BU05181251,Bloemenbuurt-oost,77901,455051,73,77901,455051,4.262.491.846.903.500,5.207.836.003.200.960
74,GDH051,154051,10270,71,24565958,Koningin Marialaan 2,65,BU05182665,Bezuidenhout-midden,82695,455825,74,82695,455825,43.322.504.077.563.700,5.208.596.251.572.120
75,GDH052,167076,11138,77,26643031,Amaliastraat 2,12,BU05182812,Voorhout,80937,455507,75,80937,455507,4.306.673.989.228.060,5.208.287.235.433.710
76,GDH052B,109730,7315,51,17498335,Amaliastraat nabij 2,12,BU05182812,Voorhout,80937,455507,76,80937,455507,4.306.673.989.228.060,5.208.287.235.433.710
77,GDH053,112906,7527,52,18004664,Oostduinlaan 143,77,BU05180477,Waalsdorp,81254,457208,77,81254,457208,4.310.930.149.305.300,5.209.820.110.460.250
78,GDH054,88623,5908,41,14132414,2e Van Blankenburgstraat 82,43,BU05181143,Sweelinckplein e.o.,79369,455673,78,79369,455673,4.283.765.135.875.120,5.208.415.218.737.230
79,GDH055,46162,3077,21,7361319,Van Stolkweg 15B,5,BU05180605,Van Stolkprk./Schev.Bosjes,79415,457403,79,79415,457403,4.284.052.641.273.280,52.099.705.407.237.000
80,GDH056,168322,11221,78,26841733,Johan van Oldenbarneveltlaan 89,7,BU05180907,Statenkwartier,79132,457261,80,79132,457261,42.799.546.469.477.900,52.098.390.579.780.200
82,GDH058,106321,7088,49,16954701,Schuytstraat 1,43,BU05181143,Sweelinckplein e.o.,79643,455613,82,79643,455613,4.287.775.280.017.960,5.208.365.034.592.740
83,GDH059,95732,6382,44,15266081,Borstelbies 5,115,BU05184215,De Bras,86442,449737,83,86442,449737,438.813.417.259.418,5.203.172.658.627.800
84,GDH060,117549,7837,54,18745176,Petuniaplein 6,92,BU05181492,Bohemen en Meer en Bos,75991,453614,84,75991,453614,4.234.966.948.032.960,5.206.517.710.983.540
85,GDH061,91710,6114,42,14624662,Erasmusweg 100,20,BU05183620,Moerwijk-oost,80632,452044,85,80632,452044,4.302.979.360.531.580,5.205.171.035.990.050
86,GDH062,96153,6410,44,15333208,Huijgenspark 56T,18,BU05182718,Huygenspark,82018,454388,86,82018,454388,4.322.681.770.443.060,5.207.295.968.526.040
87,GDH063,159554,10637,74,25443600,Luiksestraat 22,71,BU05180271,Belgisch Park,80026,458417,87,80026,458417,4.292.745.416.204.490,5.210.890.100.383.560
88,GDH064,68819,4588,32,10974337,Francois Maelsonstraat 5,7,BU05180907,Statenkwartier,78591,456776,88,78591,456776,4.272.169.206.773.440,5.209.395.763.670.560
89,GDH065,142891,9526,66,22786415,Van der Houvenstraat 75,77,BU05180477,Waalsdorp,81454,457053,89,81454,457053,4.313.881.966.808.100,52.096.834.774.250.700
90,GDH066,33501,2233,15,5342364,Pippelingstraat 181,82,BU05181882,Rosenburg,77299,453433,90,77299,453433,4.254.079.898.246.260,5.206.373.553.304.570
91,GDH067,89308,5954,41,14241572,Stevinstraat 97G,71,BU05180271,Belgisch Park,79716,458537,91,79716,458537,4.288.194.363.272.520,5.210.993.730.796.610
92,GDH068,74920,4995,35,11947297,Gaslaan 80,10,BU05182110,Rond de Energiecentrale,79564,454515,92,79564,454515,4.286.865.663.633.080,520.737.721.975.157
93,GDH069,194498,12967,90,31015888,Jozef Isra?«lslaan 4,48,BU05180448,Nassaubuurt,81885,456120,93,81885,456120,4.320.370.956.809.530,5.208.850.723.518.990
94,GDH070,178469,11898,82,28459823,Nassauplein 19,46,BU05180546,Archipelbuurt,80817,456370,94,80817,456370,4.304.735.858.691.970,520.906.118.355.501
95,GDH071,57413,3828,26,9155399,Vriezenveenstraat 58,80,BU05183480,Morgenstond-zuid,79448,451464,95,79448,451464,4.285.848.881.754.160,5.204.633.790.842.670
96,GDH072,94838,6323,44,15123431,Schenklaan 4,113,BU05184213,Singels,84436,450003,96,84436,450003,435.885.107.513.041,5.203.386.547.224.510
97,GDH073,93449,6230,43,14902011,Neptunusstraat 38,72,BU05180772,Rijslag,79259,458222,97,79259,458222,4.281.594.214.775.310,5.210.704.414.294.390
98,GDH074,111452,7430,51,17772864,Van Blankenburgstraat 80,43,BU05181143,Sweelinckplein e.o.,79438,455708,98,79438,455708,4.284.763.897.632.100,5.208.447.614.216.780
99,GDH075,161401,10760,74,25738028,Van Akenstraat 23,76,BU05180476,Duinzigt,81902,457937,99,81902,457937,4.320.229.333.724.070,52.104.838.404.646.500
100,GDH076,119594,7973,55,19071213,Van Loostraat 1,7,BU05180907,Statenkwartier,78991,456172,100,78991,456172,427.813.998.581.916,52.088.584.769.223.000
101,GDH077,88068,5871,41,14043910,Pijnboomstraat 2,52,BU05181252,Bomenbuurt,78715,455374,101,78715,455374,4.274.292.011.503.170,5.208.137.545.560.150
102,GDH078,102128,6809,47,16285997,Gentsestraat 213,71,BU05180271,Belgisch Park,80397,458706,102,80397,458706,42.980.969.815.284.800,5.211.154.830.247.380
103,GDH079,69807,4654,32,11131811,Stokroosstraat 3,51,BU05181251,Bloemenbuurt-oost,77564,454479,103,77564,454479,4.257.706.438.796.650,5.207.317.265.985.860
104,GDH080,75741,5049,35,12078113,Zeesluisweg 59,2,BU05180702,Vissershaven,78469,457495,104,78469,457495,4.270.227.762.178.670,521.004.021.673.344
105,GDH081,173523,11568,80,27671154,Koninginnegracht 137,46,BU05180546,Archipelbuurt,80949,456972,105,80949,456972,4.306.530.903.791.480,5.209.603.951.525.590
106,GDH082,282132,18809,130,44990714,Vissershavenstraat 20,2,BU05180702,Vissershaven,78277,457724,106,78277,457724,4.267.374.465.379.370,5.210.243.351.731.970
107,GDH083,37128,2475,17,5920697,De Savornin Lohmanlaan t.o. 467,91,BU05181591,Kijkduin,76337,454458,107,76337,454458,4.239.817.419.884.080,5.207.281.103.182.970
108,GDH084,152010,10134,70,24240576,Mauvestraat 57,48,BU05180448,Nassaubuurt,81811,456417,108,81811,456417,4.319.227.646.072.780,5.209.116.652.394.060
109,GDH085,114979,7665,53,18335266,Squashstraat 1,119,BU05184419,De Velden,87765,454410,109,87765,454410,44.064.914.055.082.300,5.207.388.486.962.650
110,GDH086,198200,13213,91,31606261,Van Hogenhoucklaan 87,77,BU05180477,Waalsdorp,81663,457393,110,81663,457393,4.316.858.424.172.280,52.099.917.998.050.900
111,GDH086B,58341,3889,27,9303473,Van Hogenhoucklaan nabij 87,77,BU05180477,Waalsdorp,81692,457368,111,81692,457368,4.317.286.982.350.560,5.209.969.717.176.620
112,GDH087,122162,8144,56,19480770,Balistraat 1,46,BU05180546,Archipelbuurt,81204,456254,112,81204,456254,4.310.407.053.123.290,52.089.621.099.759.600
113,GDH088,92967,6198,43,14825147,Helmstraat 1,7,BU05180907,Statenkwartier,79070,457616,113,79070,457616,4.278.970.867.336.140,5.210.157.233.617.330
114,GDH089,69354,4624,32,11059662,Adriaan Coenenstraat 55,1,BU05180701,Oud Scheveningen,78603,457913,114,78603,457913,4.272.089.440.065.940,52.104.177.090.815.700
115,GDH090,84145,5610,39,13418297,Pleviersingel 21,120,BU05184420,De Vissen,88480,453304,115,88480,453304,4.417.134.707.969.150,5.206.403.157.500.670
116,GDH091,119775,7985,55,19100120,Suezkade 187,43,BU05181143,Sweelinckplein e.o.,78917,455415,116,78917,455415,4.277.229.287.935.250,52.081.771.701.202.700
117,GDH092,183167,12211,84,29209079,Van Blankenburgstraat 48,43,BU05181143,Sweelinckplein e.o.,79611,455711,117,79611,455711,4.287.286.835.846.300,520.845.266.852.425
118,GDH093,128121,8541,59,20430960,Van Alkemadelaan 44,75,BU05180475,Uilennest,82422,456791,118,82422,456791,43.280.622.963.558.300,5.209.460.802.256.380
119,GDH094,50066,3338,23,7983780,Osloweg 26,105,BU05184005,Zonne Veld,80308,448515,119,80308,448515,4.299.027.354.714.480,5.201.995.242.730.620
120,GDH095,198555,13237,92,31662835,Ten Hovestraat 1,7,BU05180907,Statenkwartier,79302,457060,120,79302,457060,4.282.479.891.829.600,52.096.607.539.582.400
121,GDH096,58500,3900,27,9328846,Laakkade 446,24,BU05183824,Laakkwartier-west,81336,452663,121,81336,452663,4.313.107.889.986.560,5.205.736.720.736.420
122,GDH097,209079,13939,96,33341090,Van Hoornbeekstraat 83,7,BU05180907,Statenkwartier,79089,456814,122,79089,456814,4.279.426.740.222.790,52.094.367.650.526.300
123,GDH098,200166,13344,92,31919853,Prins Clauslaan 4,64,BU05182664,Bezuidenhout-west,82371,455572,123,82371,455572,4.327.577.788.035.850,52.083.646.451.234.700
124,GDH098B,88278,5885,41,14077376,Prins Clauslaan 4,64,BU05182664,Bezuidenhout-West,82388,455556,124,82388,455556,432.782.917.595.395,52.083.504.892.336.800
125,GDH099,114541,7636,53,18265517,Wildhoeflaan 27,9,BU05181309,Vogelwijk,76941,454954,125,76941,454954,42.485.122.961.311.100,5.207.735.384.311.670
127,GDH101,81297,5420,37,12964164,Van den Broekstraat 3,24,BU05183824,Laakkwartier-west,81498,452695,127,81498,452695,4.315.462.731.476.190,520.576.762.976.068
128,GDH102,79700,5313,37,12709549,De Moucheronstraat 1,66,BU05182666,Bezuidenhout-oost,83310,456312,128,83310,456312,4.341.119.641.915.290,5.209.041.906.811.880
129,GDH103,77635,5176,36,12380214,Nieuwe Parklaan 1,73,BU05180373,Westbroekpark,80510,457403,129,80510,457403,43.000.312.144.661.400,5.209.985.387.492.600
130,GDH104T,123252,8217,57,19654544,Burnierstraat 52,77,BU05180477,Waalsdorp,81156,456901,130,81156,456901,43.095.666.516.658.700,5.209.542.911.353.330
131,GDH105,68260,4551,31,10885222,Kauwlaan 16,9,BU05181309,Vogelwijk,77298,455366,131,77298,455366,4.253.625.252.237.250,52.081.106.533.201.400
132,GDH106,69550,4637,32,11090961,Spijkermakersstraat 30,14,BU05182814,Zuidwal,80703,454390,132,80703,454390,4.303.503.889.043.140,5.207.280.282.042.030
133,GDH108,144251,9617,67,23003150,Emmastraat 42,65,BU05182665,Bezuidenhout-midden,82688,455590,133,82688,455590,433.219.811.262.078,52.083.849.704.754.100
134,GDH109,129821,8655,60,20702081,Sumatrastraat 348,46,BU05180546,Archipelbuurt,81092,456668,134,81092,456668,430.868.334.235.879,5.209.332.666.440.960
135,GDH110,155300,10353,72,24765104,Prinsevinkenpark 1,46,BU05180546,Archipelbuurt,80278,456522,135,80278,456522,4.296.838.897.936.680,52.091.905.321.936.500
136,GDH111,107886,7192,50,17204221,Jacob Mosselstraat 1,65,BU05182665,Bezuidenhout-midden,83005,455499,136,83005,455499,43.368.414.858.168.400,5.208.307.321.518.220
137,GDH112,72686,4846,34,11590950,Damasstraat 1,25,BU05183825,Laakkwartier-oost,82436,452670,137,82436,452670,4.329.142.875.365.930,520.575.752.590.566
138,GDH113,97383,6492,45,15529265,Paul Gabrielstraat 1,79,BU05180479,Van Hoytemastraat e.o.,82051,456585,138,82051,456585,4.322.693.209.580.110,5.209.270.797.921.930
139,GDH114,22206,1480,10,3541161,Daal en Bergselaan 1,50,BU05181250,Bloemenbuurt-west,77106,454830,139,77106,454830,4.250.947.097.564.050,5.207.626.273.672.260
140,GDH115,175692,11713,81,28017029,Madoerastraat 1,46,BU05180546,Archipelbuurt,80654,456488,140,80654,456488,4.302.332.065.784.890,52.091.650.400.727.800
141,GDH116,197054,13137,91,31423512,Kiplaan 12,9,BU05181309,Vogelwijk,77179,455141,141,77179,455141,4.251.940.834.235.150,5.207.906.783.523.550
142,GDH117,77583,5172,36,12371859,1e De Riemerstraat 1,45,BU05182245,Zeeheldenkwartier,80540,455120,142,80540,455120,4.300.967.485.275.330,5.207.934.124.629.200
143,GDH118,43490,2899,20,6935135,Egelantierstraat 73,51,BU05181251,Bloemenbuurt-oost,78149,454850,143,78149,454850,4.266.154.249.282.530,5.207.658.818.870.470
144,GDH119,86419,5761,40,13780871,Van Limburg Stirumstraat 1,18,BU05182718,Huygenspark,81810,454290,144,81810,454290,4.319.669.383.332.120,5.207.205.153.332.140
145,GDH120,113196,7546,52,18051036,Van Dorpstraat 20,7,BU05180907,Statenkwartier,79051,457416,145,79051,457416,4.278.738.172.825.910,5.209.977.240.027.310
146,GDH121,130049,8670,60,20738509,Binckhorstlaan 36,60,BU05183960,Binckhorst,82712,454462,146,82712,454462,4.332.787.190.713.600,5.207.371.572.306.320
147,GDH122,168857,11257,78,26927093,Valkenbosplein 12,52,BU05181252,Bomenbuurt,78821,455076,147,78821,455076,4.275.904.691.103.780,5.207.871.202.234.200
148,GDH123,69008,4601,32,11004486,Zuidlarenstraat 63,88,BU05183488,Morgenstond-west,78308,452019,148,78308,452019,4.269.109.053.842.520,5.205.116.896.330.900
149,GDH124,183256,12217,85,29223205,Kranestraat 12,14,BU05182814,Zuidwal,81579,454710,149,81579,454710,4.316.210.272.783.850,520.757.954.049.182
150,GDH125,115069,7671,53,18349725,Hyacinthweg 48,50,BU05181250,Bloemenbuurt-west,77138,454330,150,77138,454330,4.251.527.874.050.190,520.717.739.297.962
151,GDH126,93468,6231,43,14905032,Arnhemsestraat 69,71,BU05180271,Belgisch Park,79914,458728,151,79914,458728,4.291.042.193.120.430,5.211.168.066.667.060
152,GDH127,125771,8385,58,20056275,New Yorksingel 66,102,BU05184002,Hoge Veld,79273,449553,152,79273,449553,4.283.721.524.836.080,52.029.140.358.762.400
153,GDH128,167685,11179,77,26740109,Dirk Hoogenraadstraat 216,3,BU05180703,Scheveningen Badplaats,79317,458652,153,79317,458652,42.823.451.743.013.900,52.110.916.334.574.200
154,GDH129,139332,9289,64,22218767,Glansvogellaan 39,112,BU05184212,Morgenweide,85869,451541,154,85869,451541,43.794.205.190.631.700,5.204.786.793.661.830
155,GDH130,132414,8828,61,21115647,Grietpolderstraat 27,121,BU05184421,Rietbuurt,87644,452596,155,87644,452596,4.405.084.566.190.320,5.205.756.777.357.680
156,GDH131,101312,6754,47,16155835,Zwanenlaan 20,9,BU05181309,Vogelwijk,77392,455500,156,77392,455500,4.254.965.858.026.260,5.208.232.392.181.120
157,GDH132,212893,14193,98,33949350,Surinamestraat 60,46,BU05180546,Archipelbuurt,80947,456430,157,80947,456430,4.306.619.446.183.110,5.209.116.844.474.210
158,GDH133,365884,24392,169,58346357,Eendenplein 10,120,BU05184420,De Vissen,88192,453340,158,88192,453340,441.292.830.808.273,5.206.432.045.206.390
159,GDH134,138353,9224,64,22062765,Zeestraat 84,47,BU05182347,Willemspark,80604,455877,159,80604,455877,4.301.735.875.525.780,5.208.615.279.951.240
160,GDH135,27785,1852,13,4430747,Laan van Meerdervoort 750,53,BU05181953,Vruchtenbuurt,77448,454231,160,77448,454231,4.256.071.104.447.470,520.709.277.455.945
161,GDH136,196632,13109,91,31356279,De Bruynestraat 61,77,BU05180477,Waalsdorp,81482,457482,161,81482,457482,4.314.197.994.885.620,52.100.693.802.282.200
162,GDH137,90323,6022,42,14403474,Irisstraat 96,51,BU05181251,Bloemenbuurt-oost,77763,454826,162,77763,454826,4.260.530.020.297.950,5.207.631.880.952.050
163,GDH138,84775,5652,39,13518779,Dodaarsoever 40,120,BU05184420,De Vissen,88624,453209,163,88624,453209,4.419.252.855.439.340,5.206.319.507.948.220
164,GDH139,44397,2960,20,7079798,Lavendelstraat 96,54,BU05182054,Heesterbuurt,78410,453846,164,78410,453846,4.270.186.137.623.530,520.676.017.366.405
165,GDH140,14134,942,7,2253946,Goudvisplein 17,120,BU05184420,De Vissen,88165,452825,165,88165,452825,4.412.635.407.841.280,5.205.968.888.596.170
166,GDH141,122189,8146,56,19485075,Heemskerckstraat 54,45,BU05182245,Zeeheldenkwartier,80226,455528,166,80226,455528,4.296.298.164.821.400,52.082.965.515.269.800
167,GDH142,69064,4604,32,11013469,De Eerensplein 30,66,BU05182666,Bezuidenhout-oost,83544,456178,167,83544,456178,4.344.561.652.420.790,5.208.924.508.888.360
168,GDH143,123855,8257,57,19750799,Zonweg 90,60,BU05183960,Binckhorst,83741,453991,168,83741,453991,4.347.892.468.999.950,5.206.961.626.578.500
170,GDH144,68764,4584,32,10965594,Badhuisweg 40,71,BU05180271,Belgisch Park,79631,458593,170,79631,458593,4.286.941.346.967.040,5.211.042.898.764.980
171,GDH145,90416,6028,42,14418285,Noorderbeekdwarsstraat 157,55,BU05182055,Valkenboskwartier,78961,454545,171,78961,454545,4.278.064.967.016.370,5.207.395.933.853.080
172,GDH146,141067,9404,65,22495523,J.C. van der Lansstraat 27,86,BU05181786,Houtwijk,76654,451766,172,76654,451766,4.245.057.897.972.620,5.204.866.399.473.260
173,GDH147,115738,7716,53,18456374,Van Hoytemastraat 4,79,BU05180479,Van Hoytemastraat e.o.,82268,456414,173,82268,456414,4.325.895.743.236.810,52.091.199.796.611.100
174,GDH147B,59094,3940,27,9423447,Van Hoytemastraat 4,79,BU05180479,Van Hoytemastraat e.o.,82266,456416,174,82266,456416,4.325.866.137.347.800,5.209.121.750.737.280
175,GDH148,100826,6722,47,16078317,Van Aerssenstraat 37,7,BU05180907,Statenkwartier,78787,457070,175,78787,457070,4.274.963.185.840.730,5.209.662.673.095.750
176,GDH149,122156,8144,56,19479840,Hemsterhuisstraat 231,45,BU05182245,Zeeheldenkwartier,80277,455217,176,80277,455217,42.971.102.130.233,5.208.017.753.160.480
177,GDH150,135054,9004,62,21536676,Schouwburgstraat 3,12,BU05182812,Voorhout,81569,455433,177,81569,455433,4.315.908.824.307.170,5.208.229.151.007.020
178,GDH151,73466,4898,34,11715309,Bleriotlaan 74,113,BU05184213,Singels,84668,450747,178,84668,450747,4.362.078.533.718.920,52.040.581.224.721.600
179,GDH152,31020,2068,14,4946587,Ambachtsgaarde 40,98,BU05183398,Dreven en Gaarden,78065,450279,179,78065,450279,4.265.958.630.133.740,5.203.549.843.779.650
180,GDH153,57140,3809,26,9111926,Aureliuslaan Aristoteleslaan 7,118,BU05184418,De Lanen,86815,452734,180,86815,452734,4.392.971.088.978.730,5.205.870.658.483.380
181,GDH154,96332,6422,44,15361666,Columbusstraat 165,44,BU05182144,Koningsplein e.o.,78993,454973,181,78993,454973,4.278.436.319.943.450,5.207.781.002.941.100
182,GDH155,53321,3555,25,8502869,Hoefbladlaan 9,92,BU05181492,Bohemen en Meer en Bos,76340,453716,182,76340,453716,4.240.032.149.947.350,5.206.614.340.736.450
183,GDH156,113426,7562,52,18087651,Celebesstraat 96,46,BU05180546,Archipelbuurt,80283,456357,183,80283,456357,4.296.948.002.228.560,5.209.042.319.108.310
184,GDH157,73417,4894,34,11707564,Hengelolaan 558,88,BU05183488,Morgenstond-west,78278,451590,184,78278,451590,4.268.768.081.939.830,5.204.730.952.019.410
185,GDH158,152812,10187,70,24368467,Kampioensingel Oude Middenweg,119,BU05184419,De Velden,87494,454343,185,87494,454343,44.025.523.198.008.500,520.732.497.780.054
186,GDH159,25124,1675,12,4006398,Kraaienlaan 38,9,BU05181309,Vogelwijk,76764,454719,186,76764,454719,42.459.846.643.239.900,5.207.521.701.554.210
187,GDH160,118825,7922,55,18948663,Vivienstraat 90,7,BU05180907,Statenkwartier,79032,456932,187,79032,456932,4.278.568.787.910.240,520.954.202.552.472
188,GDH161,141371,9425,65,22543902,Riouwstraat 84,46,BU05180546,Archipelbuurt,80557,456580,188,80557,456580,4.300.896.779.748.010,5.209.246.414.189.160
189,GDH162,41696,2780,19,6649045,Jacob Schorerlaan 169,21,BU05183721,Groente- en Fruitmarkt,80508,453073,189,80508,453073,4.300.947.456.671.140,5.206.094.108.383.180
701,GDH676,72436,4829,33,11551145,Deventersestraat 3,71,BU05180271,Belgisch Park,79895,458806,701,79895,458806,4.290.747.666.650.080,5.211.237.904.680.730
716,GDH691,32323,2155,15,5154485,Cornelis van der Lijnstraat 104,66,BU05182666,Bezuidenhout-Oost,83479,456190,716,83479,456190,4.343.610.846.383.720,5.208.934.453.694.380
828,GDH805,194,13,0,30990,Hoogeveenlaan 47,88,BU05183488,Morgenstond-west,78348,451606,828,78348,451606,4.269.784.750.940.250,52.047.462.992.350.300
313,GDH285,106564,7104,49,16993426,Van den Boschstraat nabij 215,64,BU05182664,Bezuidenhout-west,82715,455033,313,82715,455033,43.327.099.882.605,52.078.847.582.234.600
314,GDH286,83035,5536,38,13241272,Van Loostraat nabij 82,7,BU05180907,Statenkwartier,78793,456027,314,78793,456027,4.275.283.847.178.960,52.087.254.484.107.100
315,GDH287,67945,4530,31,10835026,Amersfoorstestraat t.o. 1,71,BU05180271,Belgisch Park,80096,458803,315,80096,458803,4.293.682.207.548.040,5.211.237.933.777.060
316,GDH288,50734,3382,23,8090447,Stadhouderslaan 37,41,BU05181041,Zorgvliet,79125,456171,316,79125,456171,4.280.095.081.046.210,5.208.859.416.426.790
317,GDH289,65257,4350,30,10406282,Juliana van Stolberglaan 148,65,BU05182665,Bezuidenhout-midden,82829,455468,317,82829,455468,4.334.280.729.265.800,5.208.277.171.177.820
318,GDH290,46322,3088,21,7386826,Lulofstraat 55,22,BU05183822,Laakhaven-west,81620,453364,318,81620,453364,4.317.097.584.414.980,5.206.370.463.250.760
319,GDH291,78379,5225,36,12498867,Seinpoststraat 59T,72,BU05180772,Rijslag,79438,458185,319,79438,458185,4.284.214.861.973.220,52.106.736.110.814.700
320,GDH292,70415,4694,32,11228846,Zandzeggelaan t.o. 173,91,BU05181591,Kijkduin,75887,454077,320,75887,454077,4.233.343.254.810.750,52.069.323.052.897.200
321,GDH293,140375,9358,65,22385127,Van Boetzelaerlaan 192T,7,BU05180907,Statenkwartier,78483,456722,321,78483,456722,4.270.605.571.687.860,52.093.457.439.434.600
322,GDH294,81210,5414,37,12950315,Spaarneplein t.o. 2,62,BU05182762,Rivierenbuurt-zuid,82284,454462,322,82284,454462,4.326.545.264.965.820,52.073.659.695.275.100
323,GDH295,77838,5189,36,12412604,Marnixstraat nabij 1,10,BU05182110,Rond de Energiecentrale,79893,455037,323,79893,455037,4.291.548.848.025.150,520.785.079.737.963
324,GDH296,147169,9811,68,23468588,Neuhuyskade t.o. 55,79,BU05180479,Van Hoytemastraat e.o.,82010,456300,324,82010,456300,43.221.560.225.860.000,5.209.014.134.743.640
325,GDH297,49170,3278,23,7841004,Zuidwal t.o. 1,14,BU05182814,Zuidwal,81410,454381,325,81410,454381,4.313.816.423.936.290,52.072.816.328.062.000
326,GDH298,24791,1653,11,3953384,Sinjeur Semeynsweg 15,24,BU05183824,Laakkwartier-west,81879,452336,326,81879,452336,4.321.094.056.982.260,52.054.500.441.797.000
327,GDH299,74040,4936,34,11806843,Santiagosingel t.o. 1,102,BU05184002,Hoge Veld,79606,449495,327,79606,449495,42.885.858.754.225.300,52.028.664.498.394.300
328,GDH300,45146,3010,21,7199230,Zorgvlietstraat t.o. 1,45,BU05182245,Zeeheldenkwartier,80292,454958,328,80292,454958,4.297.385.712.846.240,5.207.785.199.501.480
329,GDH301,77458,5164,36,12351890,Klatteweg 22,74,BU05180374,Duttendel,80880,457797,329,80880,457797,43.053.447.030.604,521.034.443.149.039
330,GDH302,35397,2360,16,5644704,Loosduinsekade 331,31,BU05183131,Oostbroek-noord,78969,453989,330,78969,453989,4.278.305.487.824.010,5.206.896.384.039.590
331,GDH303,20969,1398,10,3343804,Albardastraat 15,82,BU05181882,Rosenburg,77042,453328,331,77042,453328,4.250.356.711.471.560,5.206.275.583.255.570
332,GDH304,110028,7335,51,17545854,Jacob Mulderweg 34,74,BU05180374,Duttendel,80922,458380,332,80922,458380,4.305.830.878.186.470,5.210.868.918.586.750
333,GDH305,60763,4051,28,9689710,Bezuidenhoutseweg t.o. 480,61,BU05182561,Landen,84696,457377,333,84696,457377,4.361.121.066.574.710,52.100.167.815.657.100
334,GDH306,54261,3617,25,8652796,Lbeckstraat t.o. 56,42,BU05181142,Stadhoudersplantsoen,79085,455888,334,79085,455888,4.279.574.530.959.760,52.086.045.454.483.200
335,GDH307,50996,3400,24,8132172,Frans Robbelaan 32,118,BU05184418,De Lanen,87026,453569,335,87026,453569,4.395.881.112.128.480,5.206.623.663.112.110
336,GDH308,98811,6587,46,15757018,Frankenslag 189,7,BU05180907,Statenkwartier,78713,456822,336,78713,456822,4.273.938.934.026.800,5.209.438.784.987.190
337,GDH309,74021,4935,34,11803928,Suezkade t.o. 16,44,BU05182144,Koningsplein e.o.,79603,454961,337,79603,454961,4.287.335.891.013.910,5.207.778.557.653.490
338,GDH310,28074,1872,13,4476841,Harstenhoekweg 269,71,BU05180271,Belgisch Park,80054,458869,338,80054,458869,429.305.463.516.012,5.211.296.676.918.590
339,GDH311,90402,6027,42,14416082,Zevenwoudelaan nabij 223,102,BU05184002,Hoge Veld,79748,450198,339,79748,450198,4.290.500.016.776.110,52.035.001.484.394.400
340,GDH312,84098,5607,39,13410776,Tholensestraat 139,100,BU05180800,Duindorp,77541,456081,340,77541,456081,4.257.007.300.117.930,5.208.756.600.745.440
341,GDH313,38300,2553,18,6107646,Beresteinlaan t.h.v. 421,96,BU05183396,Zijden Steden en Zichten,77449,450792,341,77449,450792,4.256.866.404.999.090,5.204.002.278.735.100
342,GDH314,85182,5679,39,13583692,De Sillestraat t.o. 37,66,BU05182666,Bezuidenhout-oost,83247,455952,342,83247,455952,4.340.276.253.375.540,5.208.717.565.503.150
343,GDH315,85471,5698,39,13629717,Druivenstraat 3,53,BU05181953,Vruchtenbuurt,77868,454404,343,77868,454404,4.262.156.773.258.700,5.207.254.108.152.380
344,GDH316,6924,462,3,1104112,Maarsbergenstraat t.o. 31,84,BU05183284,Leyenburg,78569,453014,344,78569,453014,4.272.690.864.915.900,5.206.014.677.909.430
345,GDH317,23923,1595,11,3814966,Hugo de Grootstraat nabij 2,45,BU05182245,Zeeheldenkwartier,80369,455698,345,80369,455698,4.298.346.889.157.640,5.208.451.254.991.450
346,GDH318,101225,6748,47,16142033,Gentsestraat t.o. 74,71,BU05180271,Belgisch Park,79916,458540,346,79916,458540,429.111.282.522.492,5.210.999.144.629.320
347,GDH319,133816,8921,62,21339203,Frankenslag 357,7,BU05180907,Statenkwartier,78555,456520,347,78555,456520,4.271.701.353.283.530,5.209.165.208.687.820
348,GDH320,49762,3317,23,7935320,Rietgras 55,115,BU05184215,De Bras,86524,449804,348,86524,449804,4.389.315.539.115.260,52.032.338.847.149.900
349,GDH321,22443,1496,10,3578876,Soestdijksekade t.o. 581,84,BU05183284,Leyenburg,78893,453173,349,78893,453173,4.277.379.130.686.070,5.206.162.026.389.630
350,GDH322,70752,4717,33,11282544,Kranenburgweg t.o. 37,8,BU05180908,Geuzenkwartier,78367,456243,350,78367,456243,4.269.020.767.418.240,52.089.136.794.913.100
351,GDH323,3906,260,2,622877,Vlielandsestraat t.o. 87,100,BU05180800,Duindorp,77756,456302,351,77756,456302,4.260.093.702.977.190,5.208.958.208.887.730
352,GDH324,22833,1522,11,3641102,Meivliegsingel t.o. 16,120,BU05184420,De Vissen,88129,453174,352,88129,453174,44.120.422.016.232.400,5.206.282.100.834.360
353,GDH325,22145,1476,10,3531363,Ericalaan hk Narcislaan,92,BU05181492,Bohemen en Meer en Bos,75364,453609,353,75364,453609,422.582.598.157.477,52.065.042.399.212.000
354,GDH326,134724,8982,62,21484035,Waalsdorperweg t.o. 97,77,BU05180477,Waalsdorp,81438,457602,354,81438,457602,4.313.530.014.807.220,52.101.766.362.595.700
355,GDH327,36546,2436,17,5827870,Van Veendijk t.o. 2,114,BU05184214,Waterbuurt,84825,449800,355,84825,449800,4.364.560.885.324.040,52.032.090.490.518.600
356,GDH328,80503,5367,37,12837574,Douglaslaan 48,113,BU05184213,Singels,84681,450494,356,84681,450494,4.362.320.022.545,52.038.309.180.938.200
357,GDH329,72973,4865,34,11636771,Wilhelminastraat 48,65,BU05182665,Bezuidenhout-midden,82755,455633,357,82755,455633,4.333.166.352.148.530,5.208.424.488.332.020
358,GDH330,94241,6283,43,15028301,Keukenhoflaan 84,103,BU05184003,Parkbuurt Oosteinde,79784,449465,358,79784,449465,4.291.185.776.466.030,5.202.841.906.578.830
359,GDH331,27040,1803,12,4312033,Cor Spaanslaan nabij 2,118,BU05184418,De Lanen,87138,453231,359,87138,453231,4.397.581.446.048.550,52.063.212.766.020.900
360,GDH332,72828,4855,34,11613695,Boreelstraat t.o. 3,7,BU05180907,Statenkwartier,78715,456189,360,78715,456189,4.274.109.734.571.300,5.208.869.957.924.930
361,GDH333,45384,3026,21,7237272,Nigtevechtsestraat t.o. 13,30,BU05183130,Rustenburg,78875,453307,361,78875,453307,4.277.086.822.796.790,5.206.282.200.805.230
362,GDH334,61045,4070,28,9734581,Ballangelaan t.o. 1,113,BU05184213,Singels,84207,450137,362,84207,450137,435.548.656.109.255,52.035.040.529.754.100
363,GDH335,72867,4858,34,11619788,Danckertsstraat t.o. 45,42,BU05181142,Stadhoudersplantsoen,79061,455705,363,79061,455705,4.279.265.167.610.840,5.208.439.760.307.440
364,GDH336,28580,1905,13,4557629,Chris Lebeaulaan 2,118,BU05184418,De Lanen,86744,452823,364,86744,452823,4.391.918.173.443.000,5.205.949.768.333.020
365,GDH337,62467,4164,29,9961362,Watervogelstraat nabij 76,120,BU05184420,De Vissen,88350,453243,365,88350,453243,4.415.251.070.735.640,5.206.346.774.285.070
366,GDH338,76318,5088,35,12170250,Westmaasstraat nabij 17,121,BU05184421,Rietbuurt,87456,452720,366,87456,452720,44.023.192.018.763.300,5.205.865.927.596.590
367,GDH339,87726,5848,40,13989384,Lisdoddeveld 12,119,BU05184419,De Velden,87359,453813,367,87359,453813,4.400.688.498.394.440,5.206.847.021.317.550
368,GDH340,117723,7848,54,18772889,Schelpkade nabij 1,47,BU05182347,Willemspark,81126,455884,368,81126,455884,4.309.349.254.594.190,5.208.628.560.419.370
369,GDH341,46139,3076,21,7357696,Van Maudricstraat 4,77,BU05180477,Waalsdorp,81308,457282,369,81308,457282,431.170.211.123.612,5.209.887.331.506.190
370,GDH342,68691,4579,32,10953988,Statenlaan 108,7,BU05180907,Statenkwartier,78618,456839,370,78618,456839,4.272.549.030.851.110,5.209.452.752.133.640
371,GDH343,165011,11001,76,26313784,Sweelinckplein t.o. 39,43,BU05181143,Sweelinckplein e.o.,79297,455554,371,79297,455554,4.282.741.269.407.280,5.208.307.293.300.420
372,GDH344,45941,3063,21,7325988,Van Lansbergenstraat 63,66,BU05182666,Bezuidenhout-oost,83544,455870,372,83544,455870,434.462.618.590.048,5.208.647.714.852.320
373,GDH345,67732,4515,31,10800954,Wassenaarsestraat 5A,3,BU05180703,Scheveningen Badplaats,78739,458227,373,78739,458227,4.274.003.899.548.050,5.210.701.765.050.610
374,GDH346,169506,11300,78,27030596,Abraham Patrasstraat t.o. 5,65,BU05182665,Bezuidenhout-midden,83120,455492,374,83120,455492,4.338.520.469.505.660,5.208.302.524.853.680
375,GDH347,98328,6555,45,15680032,Breitnerlaan 76,79,BU05180479,Van Hoytemastraat e.o.,82309,456639,375,82309,456639,4.326.445.949.798.640,5.209.322.720.540.440
376,GDH348,34039,2269,16,5428059,Jan le Griepstraat t.o. 19,95,BU05181795,Kom Loosduinen,76432,452250,376,76432,452250,4.241.710.859.143.110,5.205.298.209.427.680
377,GDH349,21155,1410,10,3373456,Danckertsstraat nabij 1,42,BU05181142,Stadhoudersplantsoen,79240,455829,377,79240,455829,4.281.848.742.206.250,52.085.536.472.406.600
378,GDH350,56201,3747,26,8962223,Kanaalweg 1,5,BU05180605,Van Stolkprk./Schev.Bosjes,79283,457488,378,79283,457488,4.282.107.581.851.780,52.100.451.228.925.400
379,GDH351,87568,5838,40,13964099,Fitislaan t.o. 2,9,BU05181309,Vogelwijk,77339,455435,379,77339,455435,4.254.207.573.180.720,5.208.173.236.114.180
381,GDH353,41030,2735,19,6542910,Theo Mann-Bouwmeesterstraat 568,76,BU05180476,Duinzigt,82337,458070,381,82337,458070,4.326.549.398.516.230,5.210.609.093.579.270
382,GDH354,85907,5727,40,13699260,Kwartellaan 27,9,BU05181309,Vogelwijk,77261,455193,382,77261,455193,4.253.124.988.064.290,52.079.546.656.570.900
383,GDH355,36364,2424,17,5798829,Lohengrinstraat 1,93,BU05181893,Componistenbuurt,76363,453563,383,76363,453563,4.240.402.754.232.220,520.647.717.232.905
384,GDH356,92133,6142,42,14692206,Nassauplein 62,46,BU05180546,Archipelbuurt,80959,456172,384,80959,456172,43.068.505.400.331.100,5.208.885.147.430.900
385,GDH357,44404,2960,20,7081030,Sneeuwbalstraat t.o. 186 ,51,BU05181251,Bloemenbuurt-oost,77843,454916,385,77843,454916,4.261.676.432.419.410,5.207.713.875.828.140
386,GDH358,31458,2097,15,5016433,Waterlandsingel t.o. 15,103,BU05184003,Parkbuurt Oosteinde,80247,449279,386,80247,449279,4.297.971.900.655.000,52.026.810.125.086.900
387,GDH359,42190,2813,19,6727961,Hillegondastraat t.o. 28,15,BU05182915,Schildersbuurt-west,80221,454226,387,80221,454226,4.296.510.560.815.900,5.207.126.412.998.900
388,GDH360,80788,5386,37,12882978,Adriaan Pauwstraat 2,7,BU05180907,Statenkwartier,78949,456358,388,78949,456358,4.277.485.783.759.470,5.209.025.051.924.920
389,GDH361,26324,1755,12,4197722,Mozartlaan t.o. 247,94,BU05181894,Waldeck-noord,75736,453119,389,75736,453119,4.231.363.751.397.330,5.206.069.232.670.590
390,GDH362,42679,2845,20,6805836,Bentelostraat 317,88,BU05183488,Morgenstond-west,78654,451374,390,78654,451374,427.429.658.076.168,5.204.542.030.942.420
391,GDH363,13573,905,6,2164406,Van Dijkwater 9,114,BU05184214,Waterbuurt,85113,450429,391,85113,450429,4.368.628.653.812.810,5.203.777.965.357.960
392,GDH364,123549,8237,57,19701897,Prins Hendrikstraat hk van Galenstraat 74,45,BU05182245,Zeeheldenkwartier,80162,455499,392,80162,455499,429.537.096.977.751,5.208.269.625.411.100
393,GDH365,58969,3931,27,9403548,Lange Beestenmarkt 49,14,BU05182814,Zuidwal,81001,454518,393,81001,454518,430.782.203.816.824,5.207.399.301.957.410
394,GDH366,166967,11131,77,26625655,Obrechtstraat 73,43,BU05181143,Sweelinckplein e.o.,79543,455463,394,79543,455463,4.286.349.758.292.180,5.208.228.872.369.120
395,GDH367,154996,10333,71,24716663,Prinsessegracht t.o. 3,12,BU05182812,Voorhout,81833,455331,395,81833,455331,4.319.781.590.789.010,5.208.140.980.741.700
396,GDH368,41376,2758,19,6598068,Zandvoortstraat to 55,3,BU05180703,Scheveningen Badplaats,79247,458438,396,79247,458438,4.281.371.050.295.200,5.210.898.361.420.000
397,GDH369,54317,3621,25,8661790,Graspieperlaan nabij 1,112,BU05184212,Morgenweide,85971,451796,397,85971,451796,4.380.855.731.473.560,5.205.017.232.330.210
398,GDH370,37513,2501,17,5982083,Daguerrestraat nabij 161,44,BU05182144,Koningsplein e.o.,79048,454859,398,79048,454859,427.926.387.463.021,52.076.793.094.176.500
399,GDH371,38288,2553,18,6105617,Conradkade  112,43,BU05181143,Sweelinckplein e.o.,78932,455461,399,78932,455461,42.774.378.263.503.300,520.821.871.487.578
400,GDH372,9938,663,5,1584745,Twickelstraat to 112 ,20,BU05183620,Moerwijk-oost,80868,451824,400,80868,451824,4.306.467.189.112.750,5.204.976.488.645.840
401,GDH373,61638,4109,28,9829146,Columbusstraat 101,44,BU05182144,Koningsplein e.o.,79139,455054,401,79139,455054,4.280.547.734.268.740,5.207.855.796.998.530
402,GDH374,15252,1017,7,2432151,Vuurbaakstraat to 48,1,BU05180701,Oud Scheveningen,78394,457991,402,78394,457991,426.902.183.143.387,5.210.484.915.242.050
403,GDH375,127875,8525,59,20391829,De Ruyterstraat 55,45,BU05182245,Zeeheldenkwartier,80523,455766,403,80523,455766,4.300.578.494.088.800,52.085.144.383.506.900
404,GDH376,34566,2304,16,5512055,Lunterenstraat to 55,31,BU05183131,Oostbroek-noord,79263,454057,404,79263,454057,4.282.577.571.646.350,52.069.615.212.174.600
405,GDH377,64244,4283,30,10244769,Waldeck Pyrmontlaan nabij 918,43,BU05181143,Sweelinckplein e.o.,79515,455586,405,79515,455586,4.285.914.116.561.060,52.083.390.269.736.800
406,GDH378,35049,2337,16,5589201,Laan van Wateringse Veld 1084,104,BU05184004,Lage Veld,80000,448830,406,80000,448830,4.294.471.893.851.270,5.202.274.170.938.850
407,GDH379,23062,1537,11,3677567,Gotland to 23,104,BU05184004,Lage Veld,80383,448854,407,80383,448854,4.300.045.911.336.050,5.202.300.904.861.630
408,GDH380,44243,2950,20,7055330,Zilvermeeuwlaan to 68,112,BU05184212,Morgenweide,85524,451213,408,85524,451213,4.374.458.580.783.980,5.204.487.708.053.530
409,GDH381,70755,4717,33,11283013,Mispelstraat 1 ,53,BU05181953,Vruchtenbuurt,77386,453986,409,77386,453986,4.255.222.680.153.140,52.068.717.337.133.900
410,GDH382,25953,1730,12,4138612,Korbootstraat 42,2,BU05180702,Vissershaven,78460,457768,410,78460,457768,4.270.035.116.724.770,5.210.285.427.004.110
412,GDH384,95767,6384,44,15271596,Strandweg 2,2,BU05180702,Vissershaven,77846,457630,412,77846,457630,4.261.106.142.425.890,5.210.152.885.403.750
413,GDH385,102415,6828,47,16331753,Prins Mauritsplein  t.o. 19,7,BU05180907,Statenkwartier,78961,456906,413,78961,456906,4.277.538.638.677.950,52.095.176.853.017.000
414,GDH386,13401,893,6,2136934,Ipenrodeplantsoen 18,103,BU05184003,Parkbuurt Oosteinde,79966,449354,414,79966,449354,4.293.861.691.701.830,52.027.446.187.439.800
415,GDH387,110481,7365,51,17617969,Nieuwe Schoolstraat 20,12,BU05182812,Voorhout,81274,455720,415,81274,455720,4.311.543.724.557.150,5.208.483.150.623.170
416,GDH388,54631,3642,25,8711833,Doornstraat t.o. 170E,7,BU05180907,Statenkwartier,78645,457129,416,78645,457129,4.272.878.019.807.410,5.209.713.737.097.910
417,GDH389,96197,6413,44,15340164,Joan Maetsuyckerstraat 71,66,BU05182666,Bezuidenhout-oost,83122,456021,417,83122,456021,43.384.381.646.681.000,52.087.779.529.983.200
418,GDH390,77994,5200,36,12437467,Hoge Nieuwstraat 9 ,12,BU05182812,Voorhout,81220,455311,418,81220,455311,4.310.844.460.140.820,520.811.487.335.604
419,GDH391,91441,6096,42,14581731,Willem Silviusstraat t.o. 16,63,BU05182763,Rivierenbuurt-noord,82232,454822,419,82232,454822,4.325.710.137.361.940,52.076.888.111.247.000
420,GDH392,103885,6926,48,16566153,Vogelenzanglaan 2,103,BU05184003,Parkbuurt Oosteinde,80240,449471,420,80240,449471,4.297.827.962.049.790,5.202.853.464.581.930
421,GDH393,31840,2123,15,5077466,Van Kinsbergenstraat 120,45,BU05182245,Zeeheldenkwartier,80054,455411,421,80054,455411,4.293.814.935.314.460,5.208.189.081.615.740
422,GDH394,66330,4422,31,10577426,Hellingweg nabij 123,2,BU05180702,Vissershaven,78173,457194,422,78173,457194,4.265.976.256.909.450,5.209.765.618.405.120
423,GDH395,87047,5803,40,13881035,Cor Spaanslaan 72,118,BU05184418,De Lanen,86911,453466,423,86911,453466,4.394.224.751.563.870,5.206.529.685.110.460
424,GDH396,27732,1849,13,4422304,Van der Voortvaart nabij 1,114,BU05184214,Waterbuurt,84973,449981,424,84973,449981,43.666.802.633.380.300,52.033.735.837.875.900
425,GDH397,35273,2352,16,5624914,Gerrit van der Veenlaan nabij 212,86,BU05181786,Houtwijk,76822,452506,425,76822,452506,4.247.337.253.117.130,5.205.533.782.673.000
426,GDH398,104386,6959,48,16646010,Copernicuslaan 48,55,BU05182055,Valkenboskwartier,78514,454615,426,78514,454615,4.271.530.319.112.090,5.207.452.685.426.820
427,GDH399,99320,6621,46,15838240,Hofzichtlaan nabij 26,68,BU05182568,Marlot,84473,457350,427,84473,457350,43.578.724.849.659.400,5.209.989.679.756.200
428,GDH400,72446,4830,33,11552654,Okkernootstraat t.o. 20,83,BU05181983,Eykenduinen,77528,453450,428,77528,453450,4.257.414.954.755.450,5.206.392.037.670.140
429,GDH401,48173,3212,22,7681972,Abrikozenstraat 253,53,BU05181953,Vruchtenbuurt,77328,453936,429,77328,453936,4.254.388.299.171.800,5.206.825.987.588.350
430,GDH402,40243,2683,19,6417400,Van Swietenstraat nabij 76,44,BU05182144,Koningsplein e.o.,79675,455227,430,79675,455227,4.288.327.294.602.840,5.208.018.583.637.930
431,GDH403,18552,1237,9,2958373,Van Baaklaan 34,118,BU05184418,De Lanen,87226,453428,431,87226,453428,43.988.254.533.172,52.064.993.972.399.900
432,GDH404,67588,4506,31,10778097,Hoefbladlaan 18,92,BU05181492,Bohemen en Meer en Bos,76326,453663,432,76326,453663,4.239.840.227.026.770,5.206.566.512.968.660
433,GDH405,39299,2620,18,6266882,Koninginnegracht 21,47,BU05182347,Willemspark,81391,456091,433,81391,456091,4.313.170.392.763.010,5.208.818.115.681.500
434,GDH406,26678,1779,12,4254208,R.A. Flintermanstraat 21,86,BU05181786,Houtwijk,76453,451816,434,76453,451816,4.242.116.741.704.680,5.204.908.487.701.090
435,GDH407,39674,2645,18,6326709,Zegveldstraat 4,84,BU05183284,Leyenburg,78633,452715,435,78633,452715,4.273.690.794.201.910,5.205.746.858.342.620
436,GDH408,49344,3290,23,7868653,Mexicosingel nabij 72,102,BU05184002,Hoge Veld,79768,449632,436,79768,449632,4.290.915.943.074.370,5.202.991.768.681.220
437,GDH409,56073,3738,26,8941770,Watervogelstraat t.o. 47,120,BU05184420,De Vissen,88517,453091,437,88517,453091,44.177.156.786.041.000,5.206.212.178.150.340
438,GDH410,9305,620,4,1483820,Biesvaren 40 ,115,BU05184215,De Bras,86434,449864,438,86434,449864,4.387.992.148.332.180,5.203.286.694.564.930
439,GDH411,62341,4156,29,9941287,Kruisbeklaan hoek tortellaan 58,9,BU05181309,Vogelwijk,76437,454638,439,76437,454638,424.123.431.459.032,5.207.444.281.145.930
440,GDH413,47857,3190,22,7631597,Mankesstraat 155,75,BU05180475,Uilennest,82673,456985,440,82673,456985,4.331.683.419.842.740,5.209.638.431.244.840
441,GDH414,52594,3506,24,8386983,Cornelis Houtmanstraat t.o. 2,66,BU05182666,Bezuidenhout-oost,83264,456276,441,83264,456276,4.340.456.101.192.230,52.090.089.584.062.800
442,GDH415,76530,5102,35,12204041,Meerburgstraat t.o. 27,103,BU05184003,Parkbuurt Oosteinde,79602,448999,442,79602,448999,4.288.636.910.513.740,52.024.206.515.500.300
443,GDH416,43755,2917,20,6977474,Architect van Lieflandstraat nabij 1,86,BU05181786,Houtwijk,77353,452574,443,77353,452574,4.255.062.534.692.960,5.205.602.357.806.960
444,GDH417,105026,7002,48,16748210,Ruychrocklaan Van  236,76,BU05180476,Duinzigt,82132,457594,444,82132,457594,4.323.659.316.999.710,52.101.786.285.722.000
445,GDH418,49845,3323,23,7948679,Leeuweriklaan  7,9,BU05181309,Vogelwijk,77987,455738,445,77987,455738,4.263.591.087.072.900,5.208.454.581.613.680
446,GDH419,28177,1878,13,4493346,Woudendijk  Van Der 45,114,BU05184214,Waterbuurt,84717,450004,446,84717,450004,4.362.945.346.718.390,52.033.910.147.955.700
447,GDH420,81778,5452,38,13040893,Harry Pauwlaan  74,113,BU05184213,Singels,84563,450035,447,84563,450035,43.606.950.121.321.300,52.034.169.201.511.200
448,GDH421,63591,4239,29,10140699,Vlaskamp  412,67,BU05182567,Kampen,83926,456472,448,83926,456472,4.350.073.404.311.950,5.209.193.639.139.590
449,GDH422,74442,4963,34,11871001,Archimedesstraat 2,43,BU05181143,Sweelinckplein e.o.,79174,455250,449,79174,455250,4.281.014.661.455.910,5.208.032.415.277.540
450,GDH423,35951,2397,17,5732942,Rietzangerlaan  21,9,BU05181309,Vogelwijk,77024,455004,450,77024,455004,4.249.711.409.778.000,5.207.781.486.640.170
451,GDH424,95855,6390,44,15285671,Nassau Zuilensteinstraat 12,48,BU05180448,Nassaubuurt,81453,456242,451,81453,456242,4.314.042.320.510.760,5.208.954.639.557.440
452,GDH425,40979,2732,19,6534794,Akenstraat  Van 9,76,BU05180476,Duinzigt,81961,457824,452,81961,457824,4.321.114.605.141.080,521.038.306.938.363
454,GDH427,26519,1768,12,4228917,Sibergstraat 24,66,BU05182666,Bezuidenhout-oost,83521,455608,454,83521,455608,4.344.345.563.886.860,520.841.196.320.758
455,GDH428,25009,1667,12,3988121,Sterappelstraat 46,83,BU05181983,Eykenduinen,77432,453621,455,77432,453621,4.255.976.382.967.150,52.065.443.658.847.200
456,GDH429,46599,3107,21,7431015,Fahrenheitstraat 335,55,BU05182055,Valkenboskwartier,78708,454526,456,78708,454526,4.274.379.509.789.590,5.207.375.379.864.260
457,GDH430,25889,1726,12,4128399,Beekjufferhof Nabij 2,120,BU05184420,De Vissen,88488,452917,457,88488,452917,4.417.326.732.597.480,52.060.554.559.375.800
458,GDH431,8485,566,4,1353049,Dassenrade nabij 39,87,BU05183387,Venen Oorden en Raden,77789,451616,458,77789,451616,4.261.634.993.224.760,5.204.747.527.061.400
459,GDH432,31380,2092,14,5004065,Zuiderzijde hoek Beresteinlaan,96,BU05183396,Zijden Steden en Zichten,77591,450613,459,77591,450613,4.258.976.255.593.560,5.203.843.401.707.550
460,GDH433,64000,4267,30,10205859,Van Beverningkstraat Nabij 1,7,BU05180907,Statenkwartier,78686,456621,460,78686,456621,4.273.589.982.155.700,52.092.577.813.144.900
461,GDH434,24177,1612,11,3855392,Da Costastraat 24,45,BU05182245,Zeeheldenkwartier,80197,454994,461,80197,454994,4.295.992.229.819.940,52.078.162.692.682.600
462,GDH435,58617,3908,27,9347522,Lisdoddeveld 6,119,BU05184419,De Velden,87371,453719,462,87371,453719,440.088.210.973.747,5.206.762.690.275.080
463,GDH436,78912,5261,36,12583819,Johan van Oldenbarneveltlaan 74 ,7,BU05180907,Statenkwartier,79173,457212,463,79173,457212,4.280.563.811.504.790,52.097.955.852.712.600
464,GDH437,70438,4696,32,11232506,2e Schuytstraat t.o. 252,43,BU05181143,Sweelinckplein e.o.,79030,455556,464,79030,455556,427.884.614.778.889,52.083.054.336.859.200
465,GDH438,68437,4562,32,10913493,Alexanderstraat 18,47,BU05182347,Willemspark,80779,455927,465,80779,455927,4.304.277.877.996.040,5.208.662.562.372.760
466,GDH439,97877,6525,45,15608148,Willem van Oudshoornstraatt nabij 86,66,BU05182666,Bezuidenhout-oost,83278,455850,466,83278,455850,4.340.749.942.909.540,5.208.626.301.706.560
467,GDH440,51629,3442,24,8233126,Van Weede van Dijksvelstraat 58a,7,BU05180907,Statenkwartier,78940,456735,467,78940,456735,4.277.270.383.275.880,5.209.363.725.073.670
468,GDH441,115779,7719,53,18462822,Balistraat 88,46,BU05180546,Archipelbuurt,81054,456534,468,81054,456534,4.308.157.974.401.790,52.092.117.367.980.500
469,GDH442,23763,1584,11,3789442,Hartschelpsingel nabij 1,120,BU05184420,De Vissen,87817,453503,469,87817,453503,4.407.428.295.758.660,5.206.573.998.325.960
470,GDH443,27710,1847,13,4418752,Willem van  Oudhoornstraat  nabij 15,66,BU05182666,Bezuidenhout-Oost,83163,455764,470,83163,455764,4.339.090.427.472.680,52.085.475.241.861.800
471,GDH444,26134,1742,12,4167467,Dovenetelweg 61,92,BU05181492,Bohemen en Meer en Bos,76202,454111,471,76202,454111,42.379.287.832.124.400,52.069.673.497.291.200
472,GDH445,38112,2541,18,6077543,Sinaasappelstraat 73,53,BU05181953,Vruchtenbuurt,77150,453730,472,77150,453730,42.518.397.024.093.500,52.066.383.643.636.600
473,GDH446,6663,444,3,1062589,Fahrenheitstraat t.o. 7,55,BU05182055,Valkenboskwartier,79043,454078,473,79043,454078,4.279.364.767.257.630,52.069.773.808.072.700
474,GDH447,28376,1892,13,4525001,Thorbeckelaan to 29,83,BU05181983,Eykenduinen,77656,453372,474,77656,453372,4.259.298.923.393.740,52.063.237.302.975.300
476,GDH449,16435,1096,8,2620756,Alberdingk Thijmstraat 85,23,BU05183823,Spoorwijk,81296,452117,476,81296,452117,4.312.642.547.369.210,5.205.245.510.041.380
477,GDH450,59044,3936,27,9415616,Treublaan nabij 2 ,82,BU05181882,Rosenburg,76730,453699,477,76730,453699,4.245.722.693.385.680,5.206.604.587.559.520
478,GDH451,79350,5290,37,12653700,Zijdelaan t.o. 20 ,68,BU05182568,Marlot,84658,457759,478,84658,457759,4.360.487.696.934.130,521.035.959.582.403
479,GDH452,37917,2528,17,6046562,1e Sweelinckstraat t.o. 14,43,BU05181143,Sweelinckplein e.o.,79643,455613,479,79643,455613,4.287.775.280.017.960,5.208.365.034.592.740
480,GDH453,11762,784,5,1875648,Van Heelsumstraat nabij 131a,31,BU05183131,Oostbroek-noord,79148,453870,480,79148,453870,4.280.942.143.951.690,5.206.791.896.422.960
481,GDH454,74618,4975,34,11899139,Kornoeljestraat t.o. 138 ,83,BU05181983,Eykenduinen,77590,453746,481,77590,453746,425.825.183.494.656,5.206.658.908.980.890
482,GDH455,57630,3842,27,9190003,Duivelandsestraat t.o. 71 ,100,BU05180800,Duindorp,77351,456023,482,77351,456023,4.254.248.753.561.600,5.208.701.816.845.290
483,GDH456,96478,6432,44,15384966,Oude Middenweg 84,119,BU05184419,De Velden,87635,454544,483,87635,454544,4.404.568.998.761.450,5.207.507.332.735.780
484,GDH457,83848,5590,39,13370927,Klaverveld 179,119,BU05184419,De Velden,87588,454136,484,87588,454136,440.396.410.623.982,5.207.140.092.316.170
485,GDH458,99203,6614,46,15819592,Harry Diesfeldtlaan 2,118,BU05184418,De Lanen,86826,453142,485,86826,453142,4.393.050.016.721.630,5.206.237.462.133.910
486,GDH459,90954,6064,42,14504168,Pieter van der Meulenlaan 2,118,BU05184418,De Lanen,86984,453446,486,86984,453446,4.395.293.181.192.220,5.206.512.607.921.500
487,GDH460,85953,5730,40,13706701,Karekietsingel 1,112,BU05184212,Morgenweide,86024,451599,487,86024,451599,438.166.804.893.113,52.048.408.491.102.200
488,GDH461,62071,4138,29,9898285,Ypenburgse stationsweg 200,111,BU05184211,De Venen,87132,452170,488,87132,452170,4.397.704.783.417.090,5.205.367.684.422.440
489,GDH461B,73284,4886,34,11686392,Ypenburgse stationsweg 200,111,BU05184211,De Venen,87132,452170,489,87132,452170,4.397.704.783.417.090,5.205.367.684.422.440
490,GDH462,7301,487,3,1164328,Stiemensvaart 28,114,BU05184214,Waterbuurt,85234,450031,490,85234,450031,43.704.731.147.483.400,5.203.421.808.603.570
491,GDH463,68828,4589,32,10975748,Nieuwe Haven 71,13,BU05182813,Uilebomen,81886,454827,491,81886,454827,43.206.626.733.834.900,5.207.688.747.317.630
492,GDH464,151840,10123,70,24213485,Varkenmarkt 49,11,BU05182811,Kortenbos,80868,454581,492,80868,454581,4.305.868.688.352.390,520.745.413.985.198
493,GDH465,52027,3468,24,8296610,Bilderdijkstraat 41,45,BU05182245,Zeeheldenkwartier,80610,455250,493,80610,455250,4.301.960.137.404.250,52.080.518.929.222.000
494,GDH466,133086,8872,61,21222858,Kneuterdijk 15,12,BU05182812,Voorhout,81119,455304,494,81119,455304,43.093.727.603.743.200,5.208.107.235.963.010
495,GDH467,110614,7374,51,17639302,Louis Couperusplein 12,12,BU05182812,Voorhout,81111,455746,495,81111,455746,43.091.603.306.356.900,5.208.504.343.252.880
496,GDH468,83217,5548,38,13270348,Nassaulaan 23,47,BU05182347,Willemspark,80943,456087,496,80943,456087,4.306.635.577.778.420,5.208.808.546.222.190
497,GDH469,32919,2195,15,5249422,Jacob Catsstraat 325,17,BU05182917,Schildersbuurt-Oost,81403,453620,497,81403,453620,43.138.784.085.719.800,5.206.597.646.339.900
498,GDH470,140691,9379,65,22435598,Reinkenstraat 2,43,BU05181143,Sweelinckplein en omgeving,79362,455332,498,79362,455332,428.373.863.493.102,5.208.108.677.269.540
499,GDH471,110247,7350,51,17580662,Stadhouderslaan 90,7,BU05180907,Statenkwartier,79045,456258,499,79045,456258,4.278.908.615.324.620,5.208.936.503.350.150
500,GDH472,77813,5188,36,12408520,Melis Stokelaan 1182,80,BU05183480,Morgenstond-Zuid,79078,451456,500,79078,451456,4.280.457.968.323.280,52.046.215.458.161.700
501,GDH473,37459,2497,17,5973534,Zichtenburglaan 15,85,BU05181785,Kerketuinen en Zichtenburg,77038,451611,501,77038,451611,4.250.690.239.697.070,5.204.732.521.195.250
502,GDH474,15038,1003,7,2398112,Escamplaan 623,84,BU05183284,Leyenburg,78191,453048,502,78191,453048,4.267.172.249.236.160,5.206.040.005.326.570
503,GDH475,21386,1426,10,3410364,Athenesingel 74,104,BU05184004,Lage Veld,79679,448836,503,79679,448836,4.289.794.502.140.250,5.202.275.213.254.600
504,GDH476,16251,1083,7,2591555,Kapelaan Meereboerweg 42,86,BU05181786,Houtwijk,76159,451999,504,76159,451999,42.377.893.037.172,5.205.068.768.345.780
505,GDH477,135794,9053,63,21654691,Deltaplein 668,91,BU05181591,Kijkduin,74901,453884,505,74901,453884,4.219.010.609.389.800,5.206.744.694.767.970
506,GDH478,58565,3904,27,9339158,Kamperfoelieplein 11A,54,BU05182054,Heesterbuurt,78204,454465,506,78204,454465,4.267.043.042.066.440,520.731.359.575.308
507,GDH479,14805,987,7,2360851,Laan van Eik en Duinen 110,53,BU05181953,Vruchtenbuurt,77988,454082,507,77988,454082,4.263.979.420.316.400,5.206.966.407.888.860
508,GDH480,62092,4139,29,9901526,Thomsonlaan 130,51,BU05181251,Bloemenbuurt-Oost,78165,454962,508,78165,454962,4.266.362.384.059.110,52.077.596.913.243.800
509,GDH481,103007,6867,48,16426176,Sportlaan 596,52,BU05181252,Bomenbuurt,78158,455480,509,78158,455480,4.266.143.621.991.500,5.208.225.102.268.130
510,GDH482,81650,5443,38,13020402,Van Boetzelaerlaan 133,7,BU05180907,Statenkwartier,78557,456380,510,78557,456380,4.271.761.918.331.590,52.090.394.233.463.600
511,GDH483,113920,7595,53,18166463,Frankenslag 298,7,BU05180907,Statenkwartier,78679,456721,511,78679,456721,4.273.465.467.964.160,5.209.347.551.218.930
512,GDH484,82163,5478,38,13102192,Johan van Oldenbarneveltlaan 22,7,BU05180907,Statenkwartier,79350,456997,512,79350,456997,4.283.194.251.984.880,5.209.604.794.274.690
513,GDH485,52375,3492,24,8352131,Zeeruststraat 238,1,BU05180701,Oud Scheveningen,78568,458134,513,78568,458134,4.271.529.088.143.860,52.106.158.300.347.400
514,GDH486,117617,7841,54,18755948,Haringkade 163,4,BU05180704,Visserijbuurt,79525,457896,514,79525,457896,4.285.548.604.280.640,52.104.150.842.202.200
515,GDH487,128180,8545,59,20440369,Maaswijkstraat 1,3,BU05180703,Scheveningen Badplaats,79069,458482,515,79069,458482,4.278.763.287.153.600,5.210.935.462.620.920
516,GDH488,39085,2606,18,6232755,Doorniksestraat 59,71,BU05180271,Belgisch Park,80458,458316,516,80458,458316,4.299.072.688.413.300,5.210.805.171.986.140
517,GDH489,55080,3672,25,8783355,Norenburg 173,69,BU05182569,Burgen en Horsten,84421,456013,517,84421,456013,4.357.390.451.478.410,5.208.787.476.364.130
518,GDH490,23450,1563,11,3739434,Juliana van Stolberglaan 135,66,BU05182666,Bezuidenhout-Oost,83230,455601,518,83230,455601,43.401.021.085.795.600,52.084.019.080.450.400
519,GDH491,22961,1531,11,3661473,Juliana van Stolberglaan 349,66,BU05182666,Bezuidenhout-Oost,83686,455591,519,83686,455591,4.346.756.039.690.690,5.208.398.813.252.830
520,GDH492,110276,7352,51,17585349,Adelheidstraat 58,65,BU05182665,Bezuidenhout-Midden,82602,455577,520,82602,455577,4.330.946.367.597.100,5.208.372.163.804.000
521,GDH493,100746,6716,46,16065559,Willem Witsenplein 7,79,BU05180479,Van Hoytemastraat en omgeving,82514,456567,521,82514,456567,4.329.452.270.487.000,52.092.607.040.477.000
522,GDH494,63135,4209,29,10067867,Van Alkemadelaan 362,77,BU05180477,Waalsdorp,81909,457509,522,81909,457509,4.320.423.291.853.420,52.100.993.004.310.600
523,GDH495,39387,2626,18,6280933,Van Ouwenlaan 2,76,BU05180476,Duinzigt,82036,457469,523,82036,457469,4.322.285.143.243.540,5.210.065.029.322.350
524,GDH496,67280,4485,31,10728903,Hart Nibbrigkade 144,75,BU05180475,Uilennest,82458,456862,524,82458,456862,43.285.724.558.079.000,5.209.525.080.260.360
526,GDH501,34478,2299,16,5498092,Ypenburgse Boslaan 30,110,BU05184110,De Reef,86107,452093,526,86107,452093,4.382.778.247.622.000,5.205.285.837.189.900
527,GDH501B,25724,1715,12,4102121,Ypenburgse Boslaan 30,110,BU05184110,De Reef,86107,452093,527,86107,452093,4.382.778.247.622.000,5.205.285.837.189.900
528,GDH502,64256,4284,30,10246690,Koekangestraat 18,80,BU05183480,Morgenstond-Zuid,79041,451249,528,79041,451249,42.799.647.048.910.300,52.044.350.136.822.600
529,GDH502B,48960,3264,23,7807417,Koekangestraat 18,80,BU05183480,Morgenstond-Zuid,79041,451249,529,79041,451249,42.799.647.048.910.300,52.044.350.136.822.600
530,GDH503,55292,3686,26,8817151,Duinkerksestraat 18,71,BU05180271,Belgisch Park,80228,458644,530,80228,458644,429.564.383.985.919,52.110.968.313.913.600
531,GDH504,37842,2523,17,6034520,Utenbroekestraat nabij 1,77,BU05180477,Waalsdorp,81467,457283,531,81467,457283,4.314.022.038.346.380,5.209.890.345.012.850
532,GDH505,17485,1166,8,2788204,Beeklaan to 27,10,BU05182110,Rond de Energiecentrale,79355,454244,532,79355,454244,4.283.877.714.375.730,5.207.130.829.663.690
533,GDH506,20846,1390,10,3324198,Van Lansbergestraat nabij 102,66,BU05182666,Bezuidenhout-oost,83538,455928,533,83538,455928,4.344.526.504.180.250,5.208.699.760.970.850
534,GDH507,6775,452,3,1080387,Stiemensvaart nabij 90,114,BU05184214,Waterbuurt,85176,450207,534,85176,450207,4.369.592.047.110.130,5.203.579.248.874.720
535,GDH508,24403,1627,11,3891501,Conradkade 34,44,BU05182144,Koningsplein e.o.,79560,455088,535,79560,455088,4.286.680.651.812.270,5.207.892.103.070.920
536,GDH509,37671,2511,17,6007207,Loggerstraat to 4,4,BU05180704,Visserijbuurt,79122,457954,536,79122,457954,4.279.654.433.774.980,5.210.461.695.350.620
537,GDH510,24421,1628,11,3894353,Leyweg nabij 90,84,BU05183284,Leyenburg,77996,452916,537,77996,452916,4.264.359.037.126.270,5.205.918.674.619.050
538,GDH511,21891,1459,10,3490876,Cypresstraat nabij 94,52,BU05181252,Bomenbuurt,78326,455220,538,78326,455220,4.268.652.586.727.440,5.207.993.778.365.880
539,GDH512,30624,2042,14,4883436,Van Weede van Dijkveldstraat nabij 88,7,BU05180907,Statenkwartier,78789,456849,539,78789,456849,4.275.041.774.507.600,5.209.464.095.859.210
540,GDH513,8017,534,4,1278506,Spakenburgsestraat nabij 1,30,BU05183130,Rustenburg,78570,453775,540,78570,453775,4.272.535.109.427.000,5.206.698.578.168.380
541,GDH514,15878,1059,7,2531994,Albert Rousselstraat nabij 45,40,BU05181840,Nieuw Waldeck,76755,453044,541,76755,453044,42.462.373.083.369.000,5.206.016.317.389.350
542,GDH515,54739,3649,25,8728984,Bosschestraat 68,71,BU05180271,Belgisch Park,79673,458733,542,79673,458733,4.287.523.409.416.590,5.211.169.283.857.600
543,GDH516,29594,1973,14,4719239,Van Hogenhoucklaan 60,77,BU05180477,Waalsdorp,81766,457140,543,81766,457140,4.318.415.806.068.960,52.097.657.991.746.600
544,GDH517,20320,1355,9,3240336,Radarstraat 214,21,BU05183721,Groente- en Fruitmarkt,80530,452831,544,80530,452831,4.301.320.977.161.310,5.205.876.924.612.370
545,GDH518,52829,3522,24,8424482,Hyacinthweg nabij 96,50,BU05181250,Bloemenbuurt-west,77093,454077,545,77093,454077,4.250.929.383.370.590,5.206.949.398.786.470
546,GDH519,13711,914,6,2186403,Doctor A. Brediusstraat to 1,86,BU05181786,Houtwijk,77065,452084,546,77065,452084,4.250.975.887.560.150,5.205.157.969.324.700
547,GDH520,26450,1763,12,4217884,Pellenaerstraat to 1,3,BU05180703,Scheveningen Badplaats,78984,458535,547,78984,458535,4.277.510.853.672.660,5.210.981.924.555.180
548,GDH521,59773,3985,28,9531828,De Constant Rebecquestraat nabij 51,10,BU05182110,Rond de Energiecentrale,79832,454884,548,79832,454884,4.290.692.846.345.370,52.077.124.731.115.400
549,GDH522,14792,986,7,2358911,Van Akenstraat nabij 1,76,BU05180476,Duinzigt,81988,457793,549,81988,457793,4.321.515.278.284.180,5.210.355.566.792.610
551,GDH524,65753,4384,30,10485376,Brigantijnlaan 301,111,BU05184211,De Venen,86488,452252,551,86488,452252,4.388.300.339.052.530,52.054.334.532.425.900
552,GDH525,78752,5250,36,12558354,Hongarenburg nabij 115,69,BU05182569,Burgen en Hosten,84643,456220,552,84643,456220,43.605.864.319.864.500,5.208.976.329.998.090
553,GDH526,7905,527,4,1260575,Spiegelkarpersingel to 16,120,BU05184420,De Vissen,87860,452949,553,87860,452949,4.408.164.232.629.610,52.060.766.399.897.900
554,GDH527,49101,3273,23,7830017,Het Hoenstraat nabij 5,77,BU05180477,Waalsdorp,81132,456891,554,81132,456891,4.309.218.635.637.370,52.095.336.043.841.800
555,GDH528,31356,2090,14,5000255,Kamilleveld 100,119,BU05184419,De Velden,87669,453947,555,87669,453947,4.405.182.647.940.330,5.206.971.223.619.000
556,GDH529,37352,2490,17,5956479,Oeverwallaan 60,115,BU05184215,De Bras,85910,449625,556,85910,449625,4.380.405.308.225.820,5.203.065.401.606.090
557,GDH530,13978,932,6,2228954,Zweeloostraat to 34,88,BU05183488,Morgenstond-west,78324,451743,557,78324,451743,4.269.404.208.194.450,5.204.869.085.002.000
558,GDH531,36898,2460,17,5884045,Van Stienhovenstraat to 15,77,BU05180477,Waalsdorp,81823,457282,558,81823,457282,4.319.217.048.477.750,5.209.894.164.878.290
559,GDH532,23138,1543,11,3689687,Meidoornstraat to 34,54,BU05182054,Heesterbuurt,78627,453996,559,78627,453996,4.273.316.815.996.480,52.068.979.698.789.100
560,GDH533,20645,1376,10,3292180,Thomsonlaan 248,51,BU05181251,Bloemenbuurt-oost,78017,454874,560,78017,454874,4.264.223.663.956.230,52.076.785.534.649.800
561,GDH534,22827,1522,11,3640101,Hollanderstraat 88,43,BU05181143,Sweelinckplein e.o.,79195,455621,561,79195,455621,4.281.238.525.561.380,5.208.366.108.503.100
562,GDH535,39026,2602,18,6223346,Steurendaal 44,97,BU05181697,Kraayenstein en Vroondaal,76123,451470,562,76123,451470,4.237.386.666.353.210,52.045.928.642.140.400
563,GDH536,113404,7560,52,18084220,Jacob Mosselstraat nabij 107,65,BU05182665,Bezuidenhout-midden,83215,455186,563,83215,455186,4.339.970.625.666.480,52.080.287.606.953.700
564,GDH537,12300,820,6,1961360,Amprestraat 1,55,BU05182055,Valkenboskwartier,78737,454586,564,78737,454586,4.274.789.030.717.690,5.207.429.699.295.520
565,GDH538,68663,4578,32,10949531,Rusthoekstraat 37,4,BU05180704,Visserijbuurt,79353,457677,565,79353,457677,4.283.087.104.027.700,5.210.215.927.915.700
566,GDH539,52601,3507,24,8388053,Thorbeckelaan to 254,82,BU05181882,Rosenburg,77343,453455,566,77343,453455,4.254.716.432.399.750,52.063.939.408.452.100
567,GDH540,14195,946,7,2263594,Meppelrade nabij 43,87,BU05183387,Venen Oorden en Raden,77803,451998,567,77803,451998,4.261.752.747.682.180,5.205.091.013.044.300
568,GDH541,24552,1637,11,3915279,Elviraland to 37,61,BU05182561,Landen,84914,456906,568,84914,456906,4.364.399.121.099.300,52.095.962.659.970.600
569,GDH542,25181,1679,12,4015486,Kerkuillaan to 69,112,BU05184212,Morgenweide,85832,451673,569,85832,451673,4.378.854.500.493.850,52.049.049.598.380.600
570,GDH543,27573,1838,13,4397028,Sneeuwklokjestraat to 24,51,BU05181251,Bloemenbuurt-oost,77811,454970,570,77811,454970,4.261.197.503.443.900,5.207.761.957.714.650
571,GDH544,62060,4137,29,9896501,Daguerrestraat 4,44,BU05182144,Koningsplein e.o.,79352,455016,571,79352,455016,4.283.662.837.877.030,5.207.824.561.393.190
572,GDH545,48211,3214,22,7688003,Pisuissestraat to 1,95,BU05181795,Kom Loosduinen,75836,452420,572,75836,452420,4.232.983.687.418.510,5.205.442.499.760.990
573,GDH546,14697,980,7,2343726,Meierijlaan nabij 62,102,BU05184002,Hoge Veld,80146,449911,573,80146,449911,42.963.621.755.452.100,52.032.476.151.770.000
574,GDH547,63147,4210,29,10069806,Van Boetzelaerlaan nabij 65,7,BU05180907,Statenkwartier,78612,456122,574,78612,456122,4.272.622.115.130.790,52.088.083.271.297.500
575,GDH548,38499,2567,18,6139343,Frederikstraat to 51,47,BU05182347,Willemspark,81270,455969,575,81270,455969,4.311.431.547.849.790,52.087.068.672.861.300
576,GDH549,26939,1796,12,4295899,Tomatenstraat nabij 270,53,BU05181953,Vruchtenbuurt,76902,453811,576,76902,453811,4.248.205.026.649.590,5.206.707.665.179.740
577,GDH550,31909,2127,15,5088457,Zuidwoldestraat nabij 4,88,BU05183488,Morgenstond-west,78300,452332,577,78300,452332,4.268.922.176.331.310,52.053.980.689.510.400
578,GDH551,45628,3042,21,7276172,Johan van Oldenbarneveltlaan 76,7,BU05180907,Statenkwartier,79101,457274,578,79101,457274,4.279.499.406.340.160,52.098.503.155.794.000
579,GDH552,52029,3469,24,8296838,Melkeppe 13,115,BU05184215,De Bras,86266,450284,579,86266,450284,438.545.982.851.811,5.203.662.068.120.660
580,GDH553,45250,3017,21,7215831,2e Schuytstraat nabij 29,43,BU05181143,Sweelinckplein e.o.,79464,455513,580,79464,455513,4.285.186.347.836.040,5.208.272.728.653.680
581,GDH554,30126,2008,14,4804084,Architect Berlagelaan 149,86,BU05181786,Houtwijk,77351,452863,581,77351,452863,42.549.676.813.229.700,5.205.862.043.860.900
582,GDH555,35002,2333,16,5581617,Hart Nibbrigkade nabij 4,75,BU05180475,Uilennest,82614,456623,582,82614,456623,433.089.939.268.801,5.209.312.338.602.940
583,GDH556,26293,1753,12,4192786,Monacostraat hoek Madridweg,105,BU05184005,Zonne Veld,80139,448457,583,80139,448457,4.296.578.333.884.520,5.201.940.841.112.810
585,GDH558,35127,2342,16,5601656,Ypersestraat to 6,71,BU05180271,Belgisch Park,80125,458316,585,80125,458316,4.294.212.548.091.470,52.108.006.756.637.100
586,GDH559,46543,3103,21,7422101,Hndellaan nabij 4,93,BU05181893,Componistenbuurt,76394,453616,586,76394,453616,4.240.842.553.617.870,5.206.525.241.257.270
587,GDH560,25285,1686,12,4032150,Dophei hoek Cypergras 44,115,BU05184215,De Bras,85720,449947,587,85720,449947,4.377.571.763.754.820,52.033.524.116.866.600
588,GDH561,61240,4083,28,9765756,Bilderdijkstraat 133,45,BU05182245,Zeeheldenkwartier,80537,455347,588,80537,455347,4.300.874.183.713.230,52.081.380.829.870.200
589,GDH562,27609,1841,13,4402644,Machiel Vrijenhoeklaan 175,90,BU05181590,Ockenburgh,74762,453475,589,74762,453475,421.707.990.549.176,5.206.375.133.730.440
593,GDH566,15177,1012,7,2420226,Theems to 5 / Linge 2,117,BU05184317,De Rivieren,86709,453756,593,86709,453756,4.391.221.295.242.610,5.206.787.820.406.700
594,GDH567,14004,934,6,2233198,Moezel 19,117,BU05184317,De Rivieren,86531,453261,594,86531,453261,4.388.724.917.048.140,52.063.407.690.574.500
595,GDH568,46350,3090,21,7391245,Mr. P. Droogleever Fortuynweg 55,36,BU05183536,Zuiderpark,79606,452230,595,79606,452230,42.879.827.007.132.800,5.205.324.326.412.860
597,GDH570,15377,1025,7,2452172,Televisiestraat 200,21,BU05183721,Groente- en Fruitmarkt,80662,452730,597,80662,452730,4.303.267.383.852.760,5.205.787.930.827.190
598,GDH571,396,26,0,63140,Rijnstraat to 8 9,63,BU05182763,Rivierenbuurt-Noord,78868,454673,598,78868,454673,4.276.680.117.030.720,5.207.509.685.692.360
599,GDH571B,0,0,0,0,Rijnstraat to 8 9,63,BU05182763,Rivierenbuurt-Noord,76369,451952,599,76369,451952,4.240.861.098.500.200,5.205.029.514.662.280
600,GDH572,25055,1670,12,3995464,Waldorpstraat 80,19,BU05183819,Laakhaven-Oost,82060,453917,600,82060,453917,432.339.493.228.631,52.068.732.438.033.800
601,GDH573,4306,287,2,686681,Gevers Deynootweg 125,71,BU05180271,Belgisch Park,79608,459143,601,79608,459143,4.286.483.900.946.340,5.211.536.850.837.300
602,GDH574,79978,5332,37,12753896,Galilestraat 156,55,BU05182055,Valkenboskwartier,78868,454673,602,78868,454673,4.276.680.117.030.720,5.207.509.685.692.360
603,GDH575,28926,1928,13,4612662,J. Boezerstraat hoek GJ van Marrewijklaan 60,86,BU05181786,Houtwijk,76374,451955,603,76374,451955,4.240.933.288.009.700,5.205.032.281.584.690
604,GDH576,37707,2514,17,6013010,Laan van Kans 11,108,BU05184208,Bosweide,84614,451232,604,84614,451232,43.611.917.116.371.300,5.204.493.302.823.220
605,GDH577,23340,1556,11,3721970,Louis Gimberglaan to 12,76,BU05180476,Duinzigt,82313,457849,605,82313,457849,4.326.246.275.060.100,5.210.410.171.155.650
608,GDH580,5875,392,3,936893,Kloosterveenstraat 1,88,BU05183488,Morgenstond-West,78716,451718,608,78716,451718,4.275.123.415.903.590,5.204.852.027.409.930
610,GDH582,50929,3395,23,8121540,Mariastraat nabij 6,65,BU05182665,Bezuidenhout-midden,82946,455741,610,82946,455741,4.335.929.731.939.550,5.208.524.034.722.360
611,GDH583,33657,2244,16,5367108,Roelofsstraat 141,79,BU05180479,Van Hoytemastraat e.o.,82418,456523,611,82418,456523,4.328.060.987.057.670,52.092.199.042.992.600
612,GDH584,20451,1363,9,3261200,Loosduinsekade 601,84,BU05183284,Leyenburg,78208,453617,612,78208,453617,4.267.292.139.766.090,5.206.551.582.455.370
613,GDH585,43949,2930,20,7008392,Celebesstraat 1,46,BU05180546,Archipelbuurt,80577,456527,613,80577,456527,4.301.200.147.323.760,5.209.199.053.556.380
614,GDH586,61818,4121,29,9857875,Hooikade 15,12,BU05182812,Voorhout,81381,455777,614,81381,455777,43.130.922.852.525.000,5.208.535.798.864.010
617,GDH589,43752,2917,20,6976977,Tomatenstraat 182,53,BU05181953,Vruchtenbuurt,77117,453935,617,77117,453935,4.251.311.754.645.500,520.682.212.627.762
621,GDH593,19947,1330,9,3180873,Van Hogenhoucklaan 83,77,BU05180477,Waalsdorp,81699,457357,621,81699,457357,4.317.391.494.703.060,52.099.599.244.829.100
622,GDH594,37139,2476,17,5922406,Van Bylandtstraat 91,44,BU05182144,Koningsplein en omgeving,79500,454990,622,79500,454990,4.285.827.208.405.490,5.207.803.215.765.110
623,GDH595,29385,1959,14,4685981,Reijerskopstraat 46,121,BU05184421,Rietbuurt,87572,452566,623,87572,452566,4.404.040.803.166.160,5.205.728.940.690.110
624,GDH596,38869,2591,18,6198239,Cornelis Jolstraat 44,4,BU05180704,Visserijbuurt,79411.55,457815.24,624,79411.55,457815.24,4.283.910.863.576.040,521.034.095.946.151
625,GDH597,19251,1283,9,3069919,Klimopstraat 208,51,BU05181251,Bloemenbuurt-Oost,77792,454527,625,77792,454527,4.261.020.617.812.590,5.207.363.584.902.930
628,GDH600,33518,2235,15,5344951,Prins Mauritslaan 55D,7,BU05180907,Statenkwartier,78858,457010,628,78858,457010,42.760.125.636.275.400,520.960.973.044.326
632,GDH604,13570,905,6,2164016,Tomatenstraat 1,53,BU05181953,Vruchtenbuurt,77569,454238,632,77569,454238,4.257.834.029.845.300,5.207.100.758.047.180
633,GDH605,25368,1691,12,4045297,Burnierstraat nabij 31,77,BU05180477,Waalsdorp,81204,456880,633,81204,456880,4.310.271.563.386.990,5.209.524.679.401.340
634,GDH606,31174,2078,14,4971267,Douglaslaan 65,113,BU05184213,Singels,84752,450591,634,84752,450591,4.363.334.743.206.260,5.203.918.991.399.310
636,GDH608,20075,1338,9,3201258,Van Reesstraat 121,66,BU05182666,Bezuidenhout-Oost,83711,455673,636,83711,455673,4.347.103.586.033.260,5.208.472.827.202.560
637,GDH609,38767,2584,18,6182071,Walchersestraat nabij 20,100,BU05180800,Duindorp,77345,456188,637,77345,456188,4.254.123.654.895.180,5.208.850.011.602.470
640,GDH612,20846,1390,10,3324180,Spinozastraat 31,18,BU05182718,Huygenspark,81471,454315,640,81471,454315,4.314.720.241.923.630,5.207.223.130.271.540
641,GDH613,19176,1278,9,3057968,Hanenburglaan 2C,52,BU05181252,Bomenbuurt,78591,455459,641,78591,455459,4.272.464.281.807.190,5.208.212.222.421.930
642,GDH614,31380,2092,14,5004099,Dynamostraat 1,21,BU05183721,Groente- en Fruitmarkt,80846,452886,642,80846,452886,4.305.915.994.670.170,5.205.930.589.923.370
643,GDH615,72458,4831,33,11554609,Theo Mann-Bouwmeesterlaan 205,76,BU05180476,Duinzigt,82582,458194,643,82582,458194,4.330.098.697.400.260,52.107.237.412.983.000
644,GDH616,16247,1083,7,2590864,Woudenbergstraat 207,84,BU05183284,Leyenburg,78830,452835,644,78830,452835,4.276.535.987.141.950,5.205.857.410.290.220
645,GDH617,26610,1774,12,4243337,Akkerwindestraat 3,92,BU05181492,Bohemen en Meer en Bos,76360,454184,645,76360,454184,4.240.215.964.732.050,52.070.351.972.695.700
646,GDH618,27131,1809,13,4326561,Rabarberstraat 2A,54,BU05182054,Heesterbuurt,78429,453954,646,78429,453954,427.043.896.645.183,5.206.857.492.365.160
647,GDH619,44486,2966,21,7094078,Van Merlenstraat 101,44,BU05182144,Koningsplein en omgeving,79474,455291,647,79474,455291,4.285.381.363.453.040,5.208.073.360.613.390
648,GDH620,46134,3076,21,7356800,Tasmanstraat 182,45,BU05182245,Zeeheldenkwartier,79857,455466,648,79857,455466,4.290.929.286.930.480,5.208.235.838.540.420
649,GDH621,57725,3848,27,9205213,Salvador Allendestraat 99,86,BU05181786,Houtwijk,77574,453121,649,77574,453121,4.258.160.252.064.630,52.060.970.200.617.900
650,GDH622,41824,2788,19,6669525,Huijgensstraat 2,18,BU05182718,Huygenspark,81837,454408,650,81837,454408,4.320.037.839.639.390,5.207.311.554.098.050
651,GDH623,62037,4136,29,9892816,Borneostraat 62,46,BU05180546,Archipelbuurt,80652,456419,651,80652,456419,4.302.317.931.444.560,5.209.103.004.882.380
652,GDH624,31850,2123,15,5079013,Visdijk nabij 36,114,BU05184214,Waterbuurt,84888,450001,652,84888,450001,43.654.376.228.141.700,52.033.904.835.525.100
654,GDH626,46171,3078,21,7362691,Brusselselaan to 26,74,BU05180374,Duttendel,80335,458257,654,80335,458257,42.972.904.305.354,52.107.504.921.148.800
657,GDH629,56712,3781,26,9043620,Riouwstraat 40,46,BU05180546,Archipelbuurt,80426,456512,657,80426,456512,42.990.003.696.544.900,5.209.183.541.302.560
658,GDH630,16206,1080,7,2584370,Waterlandsingel 45,103,BU05184003,Parkbuurt oosteinde,80028,449171,658,80028,449171,4.294.805.057.163.050,5.202.580.999.032.170
659,GDH631,25201,1680,12,4018781,Wildhoeflaan 45,9,BU05181309,Vogelwijk,76837,454974,659,76837,454974,4.246.990.894.822.150,520.775.189.059.533
660,GDH632,27497,1833,13,4384890,Lopikstraat 11,84,BU05183284,Leyenburg,78435,452943,660,78435,452943,4.270.753.156.220.460,5.205.949.022.362.410
661,GDH633,61175,4078,28,9755400,Meerkoetstraat 2,112,BU05184212,Morgenweide,85882,451454,661,85882,451454,4.379.627.598.832.030,5.204.708.769.269.100
662,GDH634,15038,1002,7,2397980,Orionstraat 3,60,BU05183960,Binckhorst,83234,454004,662,83234,454004,4.340.496.329.410.260,52.069.667.638.959.100
663,GDH635,30095,2006,14,4799194,Volkerakstraat 2,64,BU05182664,Bezuidenhout-West,82698,454950,663,82698,454950,4.332.479.620.442.550,5.207.809.945.811.810
664,GDH636,61100,4073,28,9743404,Wassenaarseweg 6,78,BU05180478,Arendsdorp,81381,456342,664,81381,456342,4.312.970.320.031.620,5.209.043.549.959.040
665,GDH637,41004,2734,19,6538745,Buizerdlaan 2,112,BU05184212,Morgenweide,86154,451899,665,86154,451899,4.383.502.473.748.790,5.205.112.074.267.190
852,GDH830,48,3,0,7610,Ruijsdaelstraat 45A,15,BU05182915,Schildersbuurt-West,8.025.793.994,4.539.732.486,852,8.025.793.994,4.539.732.486,4.297.104.599.372.990,5.206.899.770.682.070
903,GDH895,280,19,0,44677,Laan van Wateringse Veld 901,103,BU05184003,Parkbuurt oosteinde,7.948.880.415,4.493.012.655,903,7.948.880.415,4.493.012.655,4.286.921.199.373.400,5.202.690.750.646.030
919,GDH916,868,58,0,138399,Pauwenlaan 22,9,BU05181309,Vogelwijk,7.731.420.065,4.554.777.886,919,7.731.420.065,4.554.777.886,4.253.836.099.395.530,5.208.211.340.676.360
929,GDH942,844,56,0,134581,Madridweg 57,105,BU05184005,Zonne Veld,8.011.477.515,448.426.251,929,8.011.477.515,448.426.251,42.962.321.994.360.400,5.201.912.880.624.070
930,GDH943,1459,97,1,232706,Toppereendstraat 1,120,BU05184420,De Vissen,8.798.893.828,4.537.350.128,930,8.798.893.828,4.537.350.128,440.988.989.949.077,5.206.784.590.625.910
932,GDH946,103,7,0,16372,Casuariestraat to 3,12,BU05182812,Voorhout,8.151.298.953,4.553.342.021,932,8.151.298.953,4.553.342.021,4.315.113.099.416.670,52.081.396.206.429.500
934,GDH949,105,7,0,16691,Pisuissestraat 243,90,BU05181590,Ockenburgh,7.539.246.451,4.526.296.625,934,7.539.246.451,4.526.296.625,422.646.929.925.041,52.056.245.606.618.100
937,GDH955,0,0,0,0,columbusstraat 33,44,BU05182144,Koningsplein en omgeving,7.908.997.818,4.551.242.767,937,7.908.997.818,4.551.242.767,4.279.817.099.396.510,5.207.918.280.632.130
939,GDH957,191,13,0,30494,Laan van Wateringse Veld 1394,104,BU05184004,Lage Veld,8.001.134.153,4.486.388.377,939,8.001.134.153,4.486.388.377,4.294.678.999.358.340,5.202.102.530.676.090
940,GDH958,304,20,0,48434,cartesiusstraat 83,55,BU05182055,Valkenboskwartier,7.911.017.484,4.544.946.708,940,7.911.017.484,4.544.946.708,4.280.251.699.449.840,52.073.527.506.531.700
941,GDH959,113,8,0,17984,Irisplein 48,51,BU05181251,Bloemenbuurt-Oost,775.749.645,4.546.493.212,941,775.749.645,4.546.493.212,4.257.827.699.426.600,52.074.704.806.331.200
